GHCN ID,Station Name,County,State,Elevation,Latitude,Longitude,1-Feb,2-Feb,3-Feb,4-Feb,5-Feb,6-Feb,7-Feb,8-Feb,9-Feb,10-Feb,11-Feb,12-Feb,13-Feb,14-Feb,15-Feb,16-Feb,17-Feb,18-Feb,19-Feb,20-Feb,21-Feb,22-Feb,23-Feb,24-Feb,25-Feb,26-Feb,27-Feb,28-Feb
USC00051660,CLIMAX,LAKE,Colorado,11341,39.37,-106.19,33,31,31,41,44,45,44,44,46,49,46,42,50,52,47,48,46,45,45,44,46,46,42,42,42,42,40,41
US1COPK0015,FAIRPLAY 2.7 WNW,PARK,Colorado,10391,39.23,-106.05,16.5,16.5,16.5,20.5,20,21.5,21.5,21,21,20.5,20.5,20,20.5,21.5,21.5,21.5,21.5,23.5,23.5,23,23.5,23.5,23,23.5,26,24.5,24,24
US1COPK0078,FAIRPLAY 2.7 SW,PARK,Colorado,10218,39.2,-106.04,M,M,M,M,M,M,M,M,M,M,M,M,M,9,M,M,M,M,M,M,M,M,M,M,M,M,M,M
USC00051186,CABIN CREEK,CLEAR CREEK,Colorado,10017,39.66,-105.71,6,5,5,11,11,13,14,14,13,12,12,12,12,16,14,14,14,17,16,15,17,17,16,16,16,16,16,16
US1COSU0067,BRECKENRIDGE 1.9 SSE,SUMMIT,Colorado,9885,39.48,-106.03,M,M,M,M,M,M,M,M,M,M,M,M,M,M,M,M,M,M,M,M,M,M,M,M,M,2.5,M,M
USC00050825,BONHAM RESERVOIR,MESA,Colorado,9850,39.1,-107.9,46,M,M,M,M,M,M,M,M,46,M,M,M,M,M,62,62,M,M,M,56,M,M,52,M,50,M,M
USC00058064,SUGARLOAF RESERVOIR,LAKE,Colorado,9735,39.25,-106.37,15,15,15,24,23,22,21,24,23,22,23,M,M,M,M,25,24,26,25,24,23,24,23,23,22,M,M,M
US1COLK0010,LEADVILLE 6.3 S,LAKE,Colorado,9706,39.16,-106.28,4.5,M,M,M,M,M,M,M,M,M,M,M,M,M,M,M,M,M,M,M,M,M,M,M,M,M,M,M
USC00057450,SANTA MARIA RESERVOIR,MINERAL,Colorado,9702,37.82,-107.11,5,5,5,5,5,6,5,5,4,4,3,3,3,4,4,6,6,6,6,6,6,6,5,4,4,4,4,4
US1COSU0006,SILVERTHORNE 2.1 WSW,SUMMIT,Colorado,9682,39.62,-106.1,18.6,17,15.4,22.2,23.8,24.9,M,21.6,20.6,21.5,20.8,21.2,25.6,25.2,24.4,23.5,24.4,24.9,24.2,23.4,26.6,24.6,22.8,22.7,24.4,23.4,24.7,24.2
US1COGN0018,CRESTED BUTTE 6.2 N,GUNNISON,Colorado,9604,38.96,-106.99,33,32.5,32,36.5,35,36,34.5,34,32.5,42,44,45,52,56,54,54.5,52.5,51,50,48.5,47.5,46,45.5,44.5,44,43.5,43,42.5
US1COTL0019,FLORISSANT 5.0 N,TELLER,Colorado,9552,39.0,-105.29,0.5,0.5,0.5,2.5,1.5,1.5,1,0.5,0,0,0,0,0,1,1,1,1,3.5,2.5,1.5,1.5,1,0.5,0,3,2,1,0.5
US1COCS0031,FORT GARLAND 13.3 E,COSTILLA,Colorado,9539,37.45,-105.19,18,M,M,M,M,M,M,M,M,M,M,M,M,M,18,M,M,M,0,M,M,12.8,M,M,M,M,M,M
US1COPK0067,GUFFEY 5.5 W,PARK,Colorado,9502,38.75,-105.62,2.5,2.3,1.5,0.3,0,0,0,0,0,0,0,0,0,0,2.4,1.9,3.4,3.1,2.8,2.4,2.3,0,0,0,0,2.5,0,0
US1COTL0029,DIVIDE 1.0 E,TELLER,Colorado,9438,38.93,-105.13,M,M,M,M,M,M,M,M,M,M,M,M,M,M,M,M,2.4,M,M,M,M,M,M,M,M,M,M,M
US1COTL0037,DIVIDE 5.2 SSW,TELLER,Colorado,9399,38.86,-105.18,M,M,M,T,M,M,M,M,M,M,M,M,M,M,1,M,1,M,4.5,M,M,M,M,M,M,M,M,M
US1COSJ0004,SILVERTON 0.3 WSW,SAN JUAN,Colorado,9287,37.81,-107.67,18,18,16.5,17,16,18.5,17.5,17,17,18,17.5,17.5,19.5,23,22.5,23.8,26,25.5,25,23.5,23,23,22,21.5,21.5,21.5,21,21
USC00058501,TWIN LAKES RESERVOIR,LAKE,Colorado,9234,39.09,-106.35,3,3,3,9,9,8,7,6,6,5,5,M,M,M,M,6,6,7,7,6,5,5,4,4,4,M,M,M
USC00051977,CRIPPLE CREEK 3NNW,TELLER,Colorado,9233,38.8,-105.2,1,1,1,1,1,1,1,1,1,1,T,T,T,1,1,1,2,4,3,2,2,1,1,1,4,3,2,2
US1COJF0331,GOLDEN 12.5 NW,JEFFERSON,Colorado,9190,39.88,-105.39,1,T,T,1,1,4,4.5,3,2.5,2,2,2,2,2.5,2.5,2,2,12,9,6,5,5,3.5,3,8,7,5.5,5
USC00058184,TAYLOR PARK,GUNNISON,Colorado,9177,38.82,-106.61,15,14,14,14,M,M,13,13,13,14,13,M,M,22,21,22,22,22,M,M,21,19,18,16,16,16,16,16
US1COGN0059,PITKIN 1.1 SW,GUNNISON,Colorado,9137,38.6,-106.53,17,16.5,16,15.5,15.5,19,18,17,16,17.5,17.5,17.5,20,24,24,25,25,23,22,21.5,21.5,21,21,20.5,20.5,20,20,20
USC00052294,DIVIDE 4NW,TELLER,Colorado,9132,38.96,-105.22,1,1,1,3,2,2,1,1,1,1,1,0,0,1,1,1,1,3,2,1,2,2,1,1,5,3,2,2
USC00059175,WINTER PARK,GRAND,Colorado,9093,39.89,-105.76,28,28,28,38,38,41,38,35,34,34,34,34,41,41,41,41,39,40,39,39,39,M,38,37,37,36,37,39
USC00052281,DILLON 1 E,SUMMIT,Colorado,9079,39.62,-106.03,2,2,1,4,5,5,5,4,4,4,3,4,6,5,5,4,4,5,5,4,5,5,4,3,4,4,3,3
US1COSU0004,FRISCO 0.5 N,SUMMIT,Colorado,9076,39.58,-106.1,M,M,M,M,M,M,M,M,M,M,M,M,M,M,M,M,M,M,M,M,M,M,M,M,20,M,M,M
USC00057309,RUXTON PARK,EL PASO,Colorado,9058,38.84,-104.97,4,3,3,3,3,3,3,3,3,2,2,2,1,4,4,4,4,11,11,10,9,6,5,3,10,8,6,6
USC00053446,GOULD 4SE S.F.S.P,JACKSON,Colorado,8998,40.51,-106.01,10,10,10,14,14,17,M,16,16,21,19,20,20,21,21,21,22,19,19,19,M,19,18,18,19,18,21,21
US1COPK0039,LAKE GEORGE 7.2 WNW,PARK,Colorado,8998,39.02,-105.49,M,M,M,2,M,M,M,T,M,M,M,M,M,0.5,0.5,M,M,2.5,M,M,M,T,M,M,4,M,M,M
US1COCS0032,FORT GARLAND 12.9 ENE,COSTILLA,Colorado,8992,37.51,-105.21,11.5,M,M,M,M,M,M,M,M,M,M,M,M,M,M,M,M,M,M,M,M,M,M,M,M,M,M,M
US1COMZ0033,MANCOS 11 NNE,MONTEZUMA,Colorado,8948,37.5,-108.24,M,M,M,M,M,M,M,M,M,M,M,M,M,M,M,M,M,M,M,M,M,26,25,M,M,M,M,M
US1COSM0017,PLACERVILLE 3.6 E,SAN MIGUEL,Colorado,8948,38.03,-108.01,M,M,M,9,M,10,M,M,M,11,M,10.5,M,12.5,M,12.5,14,14.2,M,M,14.5,12.5,M,M,M,M,M,M
USC00053951,HERMIT 8 SE,MINERAL,Colorado,8947,37.75,-107.1,15,14,12,13,13,14,13,13,12,12,11,11,11,13,13,14,14,14,13,13,13,12,12,12,12,12,11,11
USC00050263,ANTERO RESERVOIR,PARK,Colorado,8937,38.99,-105.89,4,3,3,6,6,6,5,5,4,4,3,3,3,3,3,3,3,5,5,5,4,4,4,3,4,3,3,2
US1COMN0004,CREEDE 0.2 WSW,MINERAL,Colorado,8918,37.85,-106.93,8.5,8,7,7.5,7,7,7,6.5,6.5,6.5,6,6,5.5,7.5,7.5,7.5,8,8,8,7,6.5,6.5,6.5,5.5,5,5,4.5,4.5
US1COJF0078,CONIFER 2.1 WSW,JEFFERSON,Colorado,8915,39.51,-105.34,M,M,M,3,M,M,M,M,M,M,M,M,M,2,M,M,M,5,M,M,2,M,M,M,3,M,M,M
USC00053652,GUFFEY 9SE,FREMONT,Colorado,8913,38.69,-105.39,2,2,2,2,2,2,1,1,1,1,0,0,0,1,1,1,1,2,1,T,0,0,0,0,2,1,1,0
US1COLP0079,ROCKWOOD 6.9 NNW,LA PLATA,Colorado,8904,37.6,-107.83,M,28,27,27,M,M,24,M,M,M,M,27,29.5,40.5,M,M,37,37,36,M,M,M,M,M,M,M,32,31.5
US1COSU0069,SILVERTHORNE 1.0 NNE,SUMMIT,Colorado,8874,39.67,-106.08,10,9.7,9,12.5,12,11,11,10.5,10,11,10,12,14,13.5,12,12,13,14,13,13,15,14,14,13,15,14.5,13.5,15
US1COMN0001,PAGOSA SPRINGS 9.1 NNW,MINERAL,Colorado,8869,37.4,-107.06,31,25.5,M,M,23.5,23.5,23,23,22.5,22.5,22,22.5,M,40.5,42.5,M,42.5,39.5,36.5,33,33,32.5,32,30.5,30.5,30.5,31,31
USC00051959,CRESTED BUTTE,GUNNISON,Colorado,8865,38.87,-106.98,11,10,10,14,13,15,13,12,10,12,11,12,13,17,15,17,15,15,14,14,13,13,13,13,12,12,12,12
US1COCF0025,BUENA VISTA 4.0 WNW,CHAFFEE,Colorado,8807,38.86,-106.21,2.5,2,2,7,6,5.5,4.5,4,3,2.5,2,1.5,1.5,3.5,4.5,4.5,4.5,11,10.5,10,9.5,9,8.5,7.5,8,6.5,5,4.5
US1COGL0017,ROLLINSVILLE 1.1 SSW,GILPIN,Colorado,8795,39.91,-105.51,12.5,12.5,12,15.5,14.5,18,18.5,17,16,15,15,14.5,17,17.5,17,16.5,16.5,22.5,21,20,20,19.5,19,17.5,22,21,20.5,20
US1COGR0068,TABERNASH 2.7 NW,GRAND,Colorado,8784,40.01,-105.89,9,9,8.5,13.5,16,17.5,12,11,10.5,11,11,11,19.5,20.5,19.5,19.5,18.5,19.5,18.5,18.5,18.5,18.5,17,17,16.5,16.5,17.5,18
US1CORG0026,SOUTH FORK 0.6 S,RIO GRANDE,Colorado,8758,37.66,-106.62,M,M,M,M,M,M,M,M,M,M,M,M,M,M,M,M,M,9,M,M,M,M,M,M,M,M,M,M
USC00057200,ROSITA,CUSTER,Colorado,8748,38.09,-105.35,0,0,0,2,0,0,0,0,0,M,M,M,M,M,M,M,M,M,M,T,T,0,0,0,3,T,0,1
USC00053496,GRAND LAKE 1 NW,GRAND,Colorado,8718,40.27,-105.83,M,M,M,M,M,M,M,M,M,M,M,M,M,M,M,M,17,M,17,16,16,M,M,15,16,16,17,17
US1COCU0026,WESTCLIFFE 8.7 ENE,CUSTER,Colorado,8683,38.18,-105.31,M,M,M,M,M,M,M,M,M,M,M,M,M,M,M,M,M,M,1,M,M,M,M,M,M,M,M,M
USC00053530,GRANT,PARK,Colorado,8673,39.46,-105.68,M,3,3,4,3,3,3,3,3,2,2,1,1,5,5,5,3,5,5,4,2,1,1,1,2,2,1,1
USC00050105,AGUILAR 18WSW,LAS ANIMAS,Colorado,8642,37.32,-104.95,T,T,0,3,1,1,T,T,0,0,0,0,0,4,4,1,4,8,6,4,2,1,T,0,7,6,3,2
USC00051948,CREEDE WATER TREATMENT,MINERAL,Colorado,8622,37.83,-106.93,M,M,M,M,M,M,M,M,M,M,M,M,M,M,M,M,M,M,M,M,M,M,M,M,M,M,M,0
US1COGR0046,KREMMLING 10.0 NW,GRAND,Colorado,8614,40.14,-106.53,M,M,11.5,M,14.5,23,M,M,M,21.5,M,17,21,23.5,20,22,M,M,M,M,M,M,M,M,21,M,22,M
US1COGR0053,TABERNASH 1.9 NW,GRAND,Colorado,8566,40.0,-105.87,M,M,M,M,M,M,M,M,M,M,M,M,M,M,16,M,M,M,M,M,M,M,M,M,M,M,M,M
US1COGR0073,GRANBY 7.7 N,GRAND,Colorado,8560,40.2,-105.93,10,10,10,10.5,10.5,15,17,15.5,12,13,12,13.5,14.5,18,18,19,19,18.5,19,18.5,18,18,17,17,19,18.5,M,18.5
USC00053116,FRASER,GRAND,Colorado,8558,39.94,-105.82,0,0,M,M,M,M,0,0,M,M,M,M,M,0,M,0,M,M,M,M,0,0,0,M,M,M,M,0
US1COBO0202,WARD 4.6 NE,BOULDER,Colorado,8558,40.11,-105.44,4.5,4.5,4.5,5.5,5,6,6.5,M,M,M,M,5,6.5,7.5,7.5,M,M,15.5,M,M,M,M,M,M,13,M,11,11
USC00054742,LAKE GEORGE 8 SW,PARK,Colorado,8548,38.91,-105.47,0,0,0,3,3,2,1,1,0,0,0,0,0,1,1,1,1,2,2,1,0,0,0,0,1,0,0,0
US1COJF0222,CONIFER 5.7 SW,JEFFERSON,Colorado,8541,39.47,-105.39,T,T,0,1,0.3,0,0,0,0,0,0,0,0,0.7,M,T,0,2,1.5,1,3.5,1.5,T,0,0.7,0,0,0
USC00053261,GEORGETOWN,CLEAR CREEK,Colorado,8518,39.71,-105.7,0,0,0,2,1,2,2,2,2,0,0,0,0,0,M,1,0,2,1,1,1,M,0,0,1,0,0,0
US1COTL0016,CRIPPLE CREEK 5.1 NW,TELLER,Colorado,8506,38.81,-105.23,0.5,0.5,T,T,T,T,T,T,T,T,T,T,T,1,1.5,1,1.5,3,2.5,1,1.5,1,0.5,T,4,2.5,2,1.5
US1COEG0053,VAIL 3.5 E,EAGLE,Colorado,8505,39.63,-106.29,20,20,20,M,M,M,24,24,23,24,24,24,M,M,M,M,M,28,25,25,26,M,25,24,M,M,M,25
US1COGR0029,KREMMLING 7.8 WNW,GRAND,Colorado,8495,40.12,-106.52,M,M,M,M,M,M,M,M,M,M,M,M,M,M,M,M,M,M,32,M,M,M,M,M,M,M,M,M
US1CORT0026,YAMPA 5.1 S,ROUTT,Colorado,8488,40.08,-106.89,13,13,12.5,14,14,13,13,13,13,15.5,14,13.5,16,19,19,19,19.5,19.5,19.5,19,19.5,19,19,19,20,19.5,20,20
US1COBO0394,ALLENSPARK 2.3 N,BOULDER,Colorado,8486,40.23,-105.53,M,M,M,M,M,M,M,M,M,M,M,M,M,M,M,M,M,M,M,M,M,M,M,M,M,M,M,4.8
US1COJF0053,CONIFER 3.2 SW,JEFFERSON,Colorado,8480,39.49,-105.35,T,T,T,0.5,T,T,T,T,T,T,T,T,T,0.5,0.5,T,T,4,3,1.5,2,M,T,T,2.5,0.5,T,T
US1COCF0005,BUENA VISTA 8.9 NNW,CHAFFEE,Colorado,8472,38.96,-106.2,M,M,M,5.5,M,M,M,M,M,M,M,M,M,M,M,M,M,M,M,M,M,M,M,M,M,M,M,M
US1COBO0022,ALLENS PARK 1.5 ESE,BOULDER,Colorado,8453,40.19,-105.5,2.5,2.5,2.5,4,4,3,4,3.5,3.5,3,3,M,M,M,M,6,5,11,10,9.5,9,8.5,8,7.5,15,13,13,12
US1COCF0020,MAYSVILLE 2.2 NE,CHAFFEE,Colorado,8423,38.54,-106.19,M,M,M,M,M,M,M,M,M,M,M,M,M,M,M,M,M,6,M,M,M,M,M,M,M,M,M,M
US1COBO0110,NEDERLAND 4.3 ENE,BOULDER,Colorado,8420,39.98,-105.43,T,T,T,0.5,T,0.5,1,T,T,T,T,T,5,6,5.5,3.5,2.5,8,4.5,2,1.5,0.5,0.5,T,6.5,3.5,2,1.5
USC00052965,FLORISSANT FOSSIL BED,TELLER,Colorado,8400,38.91,-105.28,3,3,3,4,4,3,3,3,3,3,2,1,1,1,2,2,2,3,2,1,1,T,T,T,2,2,2,1
US1COGL0025,ROLLINSVILLE 1.7 E,GILPIN,Colorado,8397,39.92,-105.47,1,1,1,2,2,6,7,5,4,3,2,1,2,2,2,2,2,5,4,3,3,3,2,2,5,5,4,4
US1COEG0019,VAIL 2.6 E,EAGLE,Colorado,8387,39.65,-106.33,7,5.5,5,9.2,8.6,16,11.5,9,8.4,8.9,8.2,9.1,11,10.6,9.4,10.8,11.5,11,10.9,9.9,11,10.6,8.5,6.8,8.9,6.5,6.1,7.3
US1COCS0011,FORT GARLAND 5.8 ESE,COSTILLA,Colorado,8354,37.39,-105.34,M,M,M,M,M,M,M,M,M,M,M,M,M,M,M,4,M,M,M,M,M,M,M,M,M,M,M,M
US1COAM0033,MOSCA 17.6 E,ALAMOSA,Colorado,8341,37.64,-105.56,M,M,M,M,M,M,1.5,M,M,M,M,M,M,M,M,M,M,M,M,M,M,M,M,M,M,M,M,M
US1COBO0075,NEDERLAND 2.61 NNE,BOULDER,Colorado,8338,39.99,-105.48,0,0,0,1,0.5,1.3,2.5,1,T,0,T,T,8,6,6,4.5,5,8,5,4,3,2,1,0.5,4.5,3.5,2.5,1
US1COBO0092,NEDERLAND .47 ESE,BOULDER,Colorado,8335,39.96,-105.5,1,1,0.5,3,2,4.5,7,4.5,3.5,3,2.5,2,8,8,8,6.5,6.5,10,7.5,6.5,6,5,4.5,4,7,6,6,5.5
US1COSA0066,CRESTONE 5.3 SSE,SAGUACHE,Colorado,8321,37.93,-105.65,10,10,9,5,4,4,3,2.5,2,2,2,2,2,6.5,7.5,5,4,4,3,3,2.5,2.5,2,2,2,2,2,1
US1COBO0233,NEDERLAND 4.2 E,BOULDER,Colorado,8276,39.97,-105.43,T,T,T,0.5,0.5,0.5,1,0.5,T,T,T,T,5.5,5,4,3.5,3,8,6,5,2.5,2.5,2.5,T,7,4,3,2.5
US1COSA0011,LA GARITA 5.6 WSW,SAGUACHE,Colorado,8249,37.79,-106.34,M,M,M,M,M,M,M,M,M,M,M,M,M,M,M,M,M,M,M,M,M,M,M,M,M,M,T,T
US1COCF0041,SALIDA 9.2 NW,CHAFFEE,Colorado,8201,38.63,-106.12,10.5,9,8,8,8,7,7,7,6.5,6.5,4.5,4.5,2.5,5,4.5,4,3.5,5.5,4.5,3,3,3,2.5,2,1.5,2.5,2,2
US1COLP0035,BAYFIELD 7.0 N,LA PLATA,Colorado,8198,37.34,-107.61,10.5,9.5,9,7,6.5,6,5.5,4,3.5,2.5,2,3,2,18,20,23,19,18,14,13,12.5,11,10,9.5,8,7,6.5,6
USC00053541,GREAT SAND DUNES NATIONAL PARK AN,ALAMOSA,Colorado,8181,37.73,-105.51,3,2,2,1,1,1,1,1,1,1,0,0,0,T,2,1,T,1,T,T,T,T,T,0,T,0,T,T
USC00050372,ASPEN 1SW,PITKIN,Colorado,8173,39.19,-106.84,17,17,15,25,23,25,23,22,20,20,21,21,25,25,26,28,27,28,27,24,27,27,25,24,26,24,27,29
US1COBO0296,NEDERLAND 3.7 ENE,BOULDER,Colorado,8172,39.99,-105.44,T,T,T,1,T,0.5,1.5,M,M,M,M,T,7,7,7,6.5,5,10,8.5,7,7,6,6.5,5,10.5,8.5,M,M
US1COCF0015,SALIDA 9.1 NW,CHAFFEE,Colorado,8167,38.62,-106.13,M,M,M,4.5,M,M,M,M,M,M,M,M,M,5,5,2,M,M,4,M,M,M,M,M,1,0.5,M,M
US1COSU0035,SILVERTHORNE 21 NW,SUMMIT,Colorado,8154,39.9,-106.31,M,M,5.6,M,M,M,M,M,M,M,M,M,M,M,M,M,M,M,M,M,M,M,M,M,M,M,M,M
US1COEG0062,EDWARDS 3.9 SW,EAGLE,Colorado,8151,39.62,-106.66,M,M,M,4,M,M,M,M,M,M,M,M,M,M,M,M,M,M,M,M,M,M,M,M,M,M,M,M
USC00050754,BLACK CANYON OF THE GUNNISON,MONTROSE,Colorado,8149,38.55,-107.69,21,20,19,20,19,18,18,18,17,22,20,21,22,30,29,31,31,31,30,28,27,26,26,26,25,25,29,27
US1COLR1041,ESTES PARK 3.9 NNE,LARIMER,Colorado,8148,40.43,-105.5,M,M,M,M,M,M,M,M,M,M,M,M,M,M,M,M,8.5,M,M,M,M,M,M,M,M,M,M,M
US1CORT0056,CLARK 7.1 NW,ROUTT,Colorado,8136,40.78,-107.0,M,M,M,M,M,M,M,M,M,M,M,M,M,M,M,M,M,M,M,M,M,M,M,M,M,M,30.5,M
US1COCF0019,NATHROP 3.3 WSW,CHAFFEE,Colorado,8134,38.73,-106.13,3,M,2.5,2,1.5,1,0.5,M,M,T,T,T,3,M,M,M,M,M,M,M,M,M,M,M,M,M,T,T
USC00054934,LEMON DAM,LA PLATA,Colorado,8108,37.38,-107.66,23,21,18,18,17,17,17,17,16,16,16,17,17,32,31,33,30,29,28,27,26,25,24,23,22,21,21,20
US1COCC0001,EVERGREEN 6.5 WSW,CLEAR CREEK,Colorado,8095,39.61,-105.44,M,M,M,T,M,T,M,M,M,M,M,T,T,1,1,0.5,M,6,5,3.5,2,1.5,0.5,T,4.5,3,2,2
US1COLR0247,ESTES PARK 3.3 SSW,LARIMER,Colorado,8092,40.33,-105.52,T,T,T,T,T,0.5,1.5,0.5,T,T,T,T,1.3,2.6,2.6,2.5,2,4.1,3.5,3,2.5,2,0.5,T,2.8,2.5,3.3,3.1
US1COAU0045,PAGOSA SPRINGS 7.2 NW,ARCHULETA,Colorado,8085,37.34,-107.12,M,M,M,17,M,M,M,M,M,M,M,M,16.5,30,32,M,M,M,29,M,M,M,M,M,M,M,M,M
US1COSA0002,CRESTONE 1.2 SSE,SAGUACHE,Colorado,8083,37.98,-105.69,11,10.5,10,10.5,10,10,10,9,8.5,8.5,M,8,7.5,12,12,11,11,11.5,11,10.5,10,10,9.5,8.5,8.5,8,8,8
USC00058756,WALDEN,JACKSON,Colorado,8054,40.74,-106.28,1,1,1,1,1,1,2,2,1,1,1,1,1,2,2,2,1,1,1,1,1,M,1,1,2,1,2,1
US1COBO0322,NEDERLAND 0.4 WNW,BOULDER,Colorado,8038,39.97,-105.51,T,T,T,3,1.5,3.8,5.8,2.2,1,0.5,0.1,T,7.1,7,6,5,3.3,6,5.2,4.5,3.5,2.6,1.5,0.5,3.5,1,0.2,0.1
US1COSA0061,BONANZA 6.6 S,SAGUACHE,Colorado,8035,38.19,-106.1,M,M,M,M,M,M,M,M,M,M,M,M,M,M,M,M,M,M,14,M,M,M,M,M,M,M,M,M
USC00051713,COCHETOPA CREEK,GUNNISON,Colorado,8004,38.44,-106.76,7,7,6,7,7,8,8,8,8,7,7,7,7,6,7,10,9,9,9,9,9,9,9,8,8,8,8,8
USC00051964,CRESTONE 2 SE,SAGUACHE,Colorado,8002,37.98,-105.69,11,10,10,10,10,10,9,9,8,8,8,8,8,12,11,11,11,11,10,10,10,10,9,9,8,8,8,8
US1COSU0058,HEENEY 0.5 NW,SUMMIT,Colorado,7992,39.87,-106.31,M,M,M,M,M,M,M,M,M,M,M,M,M,M,12.5,M,M,M,M,M,M,M,M,M,M,M,M,M
USC00053629,GROSS RESERVOIR,BOULDER,Colorado,7968,39.94,-105.35,0,0,0,0,0,0,0,0,M,0,0,0,2,3,3,1,0,5,4,1,0,0,0,0,6,4,3,2
US1COLR1115,ESTES PARK 1.7 W,LARIMER,Colorado,7956,40.37,-105.55,M,M,T,M,M,M,M,M,M,T,M,M,M,M,M,M,2.5,M,M,M,M,M,M,2,M,M,M,M
US1COCF0054,NATHROP 1.9 WSW,CHAFFEE,Colorado,7954,38.72,-106.11,4,4,4,3,3,3,3,3,2,0,0,0,0,0.5,1,1,1,1,1,1,1,1,0,0,0.5,0,0,0
USC00051071,BUENA VISTA 2S,CHAFFEE,Colorado,7952,38.82,-106.13,0,0,0,2,1,1,T,0,0,0,0,0,0,3,2,2,2,6,6,4,3,2,0,0,T,0,0,0
US1COOR0024,RIDGWAY 3.6 NW,OURAY,Colorado,7941,38.2,-107.8,12,12,11,13,12,12,12,11,11,14,13,12,12,17,17,16,19,21,20,18,18.5,18,18,16,15,15,15,15
US1COLR0767,ESTES PARK 1.8 S,LARIMER,Colorado,7938,40.35,-105.52,T,T,T,T,T,T,1,0.5,T,T,T,T,2,4,3.5,3,1.5,5,4,3.5,3,2.5,1.5,1,4.5,3,3,3
US1COCU0036,WESTCLIFFE 0.6 NNE,CUSTER,Colorado,7933,38.14,-105.46,3,2.5,M,3,M,M,M,2,M,M,T,T,T,M,1,M,M,3.5,M,M,M,T,T,T,2.6,0.5,T,T
US1COCC0022,EVERGREEN 3.4 WNW,CLEAR CREEK,Colorado,7930,39.65,-105.4,M,M,M,M,M,M,M,M,M,M,M,M,T,M,M,M,M,6,M,M,2,M,M,M,M,3.2,2.5,M
US1COLR0329,RED FEATHER 5.9 NE,LARIMER,Colorado,7921,40.86,-105.51,M,M,M,M,1,M,M,M,M,M,M,M,M,M,M,M,M,M,M,M,M,M,M,M,M,M,M,M
US1COAU0047,CHROMO 3.9 E,ARCHULETA,Colorado,7907,37.04,-106.76,M,13.2,12,9.6,M,M,M,M,9,8.8,8.4,8,9,18,21.6,17,15.6,M,14.4,13.2,13.8,12,M,10,M,9.6,9.3,8.6
US1COGR0052,PARSHALL 3.0 NNW,GRAND,Colorado,7891,40.09,-106.2,1.5,1.5,1,1.5,1.5,3.5,3,2,2,2,1.5,1.5,2,4,3.5,3.5,5,5,4.5,4,3.5,3.5,3,2.5,4,3.5,4.5,4
US1COBO0057,NEDERLAND 5.8 E,BOULDER,Colorado,7878,39.97,-105.4,0,0,0,0.5,T,0.5,0.5,T,T,T,T,T,4,4,4,M,2.5,8,5,3,2,1.5,1,T,6.5,4,3,3
USC00058931,WESTCLIFFE,CUSTER,Colorado,7871,38.13,-105.47,6,6,5,5,5,4,4,3,3,2,1,1,1,2,2,2,4,4,2,1,1,T,T,0,2,T,0,0
USC00059265,YAMPA,ROUTT,Colorado,7855,40.16,-106.91,10,10,8,10,11,10,10,9,8,10,9,10,11,11,11,11,12,12,11,10,12,12,10,M,M,M,13,13
USC00052184,DEL NORTE 3ENE,RIO GRANDE,Colorado,7843,37.69,-106.31,8,6,6,5,3,3,2,2,2,2,2,T,T,1,1,1,1,2,2,1,T,T,T,T,0,0,0,0
US1COSA0059,SAGUACHE 0.4 E,SAGUACHE,Colorado,7826,38.09,-106.13,2.5,2.5,1.5,1.5,1,1,1,1,1,0.5,0.5,T,T,3.1,4,4,4,3.5,3.5,3,2,2,1.5,0.5,T,T,T,T
US1CORG0016,DEL NORTE 3.3 E,RIO GRANDE,Colorado,7824,37.68,-106.29,M,M,M,M,M,M,M,M,M,M,M,T,T,1,0.5,T,T,1.5,0.5,T,T,T,T,M,T,T,M,M
US1COAU0048,PAGOSA SPRINGS 5.2 NNW,ARCHULETA,Colorado,7824,37.34,-107.06,M,M,M,M,M,M,M,M,M,M,M,M,M,M,M,M,32,M,M,M,M,M,M,M,M,M,26,M
US1COJF0157,EVERGREEN 4.2 SSE,JEFFERSON,Colorado,7800,39.58,-105.28,M,M,M,T,M,M,M,M,M,M,M,M,M,0.5,0.5,M,M,7,4,2,3,2,1,M,8,5,3,2
US1COCC0002,EVERGREEN 5 W,CLEAR CREEK,Colorado,7787,39.64,-105.41,T,T,T,T,T,T,0,0,0,0,0,T,0,0.5,0.5,M,0,4.5,3.5,1,0.5,T,T,M,3.5,1,T,M
US1COBO0230,BOULDER 6.8 WNW,BOULDER,Colorado,7774,40.08,-105.36,M,M,M,M,M,M,M,M,M,M,M,M,M,1.1,M,M,M,6.2,M,M,M,M,M,M,M,M,M,M
US1COJF0425,GOLDEN 11.8 NW,JEFFERSON,Colorado,7769,39.9,-105.35,M,M,M,M,M,0.5,M,M,M,M,M,M,M,M,M,M,M,M,M,M,M,M,M,M,M,M,M,M
US1COGN0068,GUNNISON 0.2 NW,GUNNISON,Colorado,7760,38.55,-106.93,M,M,M,M,M,M,M,M,M,M,M,M,M,M,10,M,M,M,M,M,M,M,M,M,M,M,M,M
USC00050454,BAILEY,PARK,Colorado,7750,39.41,-105.48,10,9,8,8,8,8,8,7,7,6,6,6,6,8,8,8,8,12,12,12,12,12,10,10,15,15,13,13
USC00057337,SAGUACHE,SAGUACHE,Colorado,7739,38.09,-106.15,3,2,2,4,4,3,2,1,1,1,1,1,3,4,4,3,4,6,4,2,2,1,1,1,4,1,1,3
US1COJF0395,EVERGREEN 2.0 ESE,JEFFERSON,Colorado,7736,39.62,-105.31,0,M,M,0,M,M,M,0,M,M,0,M,M,0.5,0.5,M,M,6,4,2,1,T,M,M,7,5,3.5,2.5
US1COGN0052,GUNNISON 0.8 N,GUNNISON,Colorado,7734,38.56,-106.93,M,M,M,M,M,M,M,M,M,M,M,M,M,M,M,8,M,M,M,M,M,M,M,M,M,M,M,M
USC00055519,MESA 5SSE,MESA,Colorado,7728,39.09,-108.12,13,12,12,19,18,17,17,17,17,17,16,17,17,20,20,21,26,26,25,23,25,23,22,21,22,22,21,21
USC00056205,OURAY NO. 2,OURAY,Colorado,7716,38.03,-107.67,10,9,9,17,14,13,12,11,10,12,10,9,9,11,13,14,19,19,16,14,18,15,14,12,10,11,8,8
USC00057296,RUSTIC 9WSW,LARIMER,Colorado,7695,40.7,-105.71,0,0,0,0,0,0,0,0,0,0,0,0,3,4,4,2,0,1,0,0,0,0,0,0,2,1,2,1
USC00055706,MONTE VISTA 2W,RIO GRANDE,Colorado,7693,37.58,-106.19,4,4,3,2,2,2,1,T,T,T,0,0,0,1,1,0,0,7,5,4,3,2,T,T,0,0,0,0
US1COCC0018,EVERGREEN 3.5 W,CLEAR CREEK,Colorado,7676,39.64,-105.41,M,M,M,M,M,M,M,M,M,M,M,M,M,M,M,M,M,M,M,M,M,M,M,M,3.5,2,M,M
US1CORG0002,MONTEVISTA 2.7 SSE,RIO GRANDE,Colorado,7652,37.55,-106.12,M,M,M,M,M,M,M,M,M,M,M,M,M,0,0.5,M,M,4,M,M,M,M,M,M,M,0,M,M
US1CORG0010,MONTE VISTA 2.4 E,RIO GRANDE,Colorado,7649,37.58,-106.1,5,M,M,M,M,M,M,M,M,M,M,M,M,M,M,M,M,4,M,M,M,M,M,M,M,M,M,M
USC00058582,VALLECITO DAM,LA PLATA,Colorado,7642,37.38,-107.58,M,15,13,12,M,M,M,M,M,M,M,M,M,M,M,M,M,M,M,M,M,M,M,M,M,16,15,15
US1COLR0987,ESTES PARK 1.8 SSE,LARIMER,Colorado,7640,40.35,-105.5,M,M,M,T,T,T,0.2,M,M,T,M,T,1,2.5,2,1.5,1,3,2,1,T,T,T,T,3,2,1,0.5
USC00053662,GUNNISON 3SW,GUNNISON,Colorado,7620,38.53,-106.97,6,6,5,4,4,4,4,4,3,5,4,4,M,M,7,8,8,8,7,7,6,6,6,6,5,5,5,5
USC00059096,WILLIAMS FORK DAM,GRAND,Colorado,7616,40.04,-106.2,2,2,2,3,3,5,5,4,3,4,3,3,7,8,8,8,M,8,8,8,8,8,0,M,M,7,9,9
USC00053016,FORT LEWIS,LA PLATA,Colorado,7612,37.23,-108.05,10,9,8,8,7,7,7,6,6,5,5,4,6,12,14,18,16,15,14,13,12,10,9,8,7,6,5,5
USC00058860,WAVERLY 1W,ALAMOSA,Colorado,7600,37.43,-106.03,0,0,0,0,0,0,0,0,0,0,0,0,0,T,T,0,0,6,4,4,2,2,T,T,0,0,0,0
US1COAM0001,ALAMOSA 5.8 WNW,ALAMOSA,Colorado,7587,37.51,-105.97,M,M,M,M,M,M,M,M,M,M,M,M,M,0.2,M,M,M,M,M,M,M,M,M,M,M,M,M,M
US1COCF0055,SALIDA 1.8 SSW,CHAFFEE,Colorado,7582,38.51,-106.01,2,2,1.5,1,1,1,1,T,T,T,T,T,T,3,3,2,1.5,2,1.5,1,T,T,T,T,0.5,T,T,T
US1COLR0897,LIVERMORE 9.9 WSW,LARIMER,Colorado,7555,40.72,-105.41,T,T,T,T,T,T,T,T,T,T,T,T,0.5,2,2,1.5,1.5,6,5,4,3,2.5,2,1,5.5,4,3.5,3.5
USC00050128,ALAMOSA 1E,ALAMOSA,Colorado,7538,37.47,-105.86,0,0,0,0,0,T,0,0,0,0,0,0,0,1,1,1,0,3,1,1,T,0,0,0,0,0,0,0
USW00023061,ALAMOSA-BERGMAN FIELD,ALAMOSA,Colorado,7531,37.44,-105.86,0,0,0,0,0,T,0,0,0,0,0,0,0,1,1,1,T,3,1,1,T,0,0,0,0,0,0,0
US1COEP0066,BLACK FOREST 3.9 NNE,EL PASO,Colorado,7518,39.1,-104.64,M,M,M,3.5,3,3,2.5,1.5,1,0.5,T,T,T,1,2,1,0.5,2.5,2,1,1,0.5,M,T,5,3.5,2.5,2
US1COJF0484,EVERGREEN 1.8 N,JEFFERSON,Colorado,7503,39.66,-105.34,T,M,M,M,M,M,M,T,M,M,M,M,M,M,M,M,M,M,M,M,M,T,M,M,3,M,M,M
US1COAU0049,PAGOSA SPRINGS 4.7 E,ARCHULETA,Colorado,7496,37.26,-106.93,16,15,13,11,11,11,11,10,10,9.5,9.5,9.5,10,21,21,19,18,18,17,17,15,14.5,14,13,12.5,12.5,12,11.5
US1COMZ0077,MANCOS 6.7 ESE,MONTEZUMA,Colorado,7473,37.29,-108.19,8,7.8,5.5,4.8,4,3.5,3.2,2,2,M,M,0,0,9.5,9,13,9,8,M,6.5,5.5,4.5,3.5,3,2,M,T,T
USC00054664,KREMMLING,GRAND,Colorado,7458,40.06,-106.37,0,M,M,M,M,M,M,M,M,M,M,M,M,M,M,M,M,M,M,M,M,M,M,M,M,M,3,3
US1COJF0424,EVERGREEN 1.3 NNE,JEFFERSON,Colorado,7452,39.65,-105.34,M,M,M,M,M,M,M,M,M,M,M,M,M,M,M,M,M,4,3,2.5,3,M,M,M,3,1.5,T,M
US1COLP0098,BAYFIELD 6.2 N,LA PLATA,Colorado,7445,37.32,-107.6,12,11,10,8,8,8,8,7,6,6,5,5,5,20,20,22,20,18,17,16,15,14,13,12,11,10,9,9
US1COEP0396,BLACK FOREST 3.8 W,EL PASO,Colorado,7439,39.04,-104.74,2,2,1,6,5,5,4,3,3,2,2,2,2,3,4,4,3,9,8,6,7,6,4,2,8,8,6,5
US1COLP0061,DURANGO 4.8 WSW,LA PLATA,Colorado,7428,37.25,-107.95,16,15,12,9,8.5,8.5,8,7.5,7,6.5,6,5.5,5.5,14,15,17,16,15.5,15,14,12,11.5,11,10,9.5,9,8.5,8
US1CORT0063,OAK CREEK 4.7 E,ROUTT,Colorado,7401,40.26,-106.87,M,M,M,M,M,M,M,M,M,M,M,M,M,M,M,M,M,M,M,M,2,M,M,M,M,M,M,M
US1COAU0026,PAGOSA SPRINGS 1.6 SSW,ARCHULETA,Colorado,7399,37.25,-107.03,M,10,9,8,8,7.5,7,6.5,6,6,5,4.5,5,13,13,11,10,9.5,9.5,8.5,7.5,7,6.5,6,5,5,4,4
USC00051060,BUCKHORN MTN 1 E,LARIMER,Colorado,7398,40.62,-105.3,0,0,0,T,0,0,T,0,0,0,0,T,1,2,2,1,1,5,4,4,2,1,T,0,6,4,3,3
USC00056520,PLACERVILLE,SAN MIGUEL,Colorado,7381,38.02,-108.05,6,6,5,8,7,6,6,5,5,8,4,3,2,5,5,9,12,15,13,12,14,14,13,13,12,12,11,10
US1COEP0365,PEYTON 5.4 NNW,EL PASO,Colorado,7343,39.09,-104.53,0,0,0,2,1.5,1,1,0.5,0,0,0,T,T,1.2,1.2,1,M,1.5,0.5,0,0.5,0,0,T,5.7,4.5,2.5,1.5
US1COEG0051,CARBONDALE 5.9 ENE,EAGLE,Colorado,7316,39.43,-107.11,8.5,8.3,8.1,10.5,9.8,10.8,10,9.5,9.5,9.1,8.4,8.3,11.2,11.4,11,15.2,13.8,13.6,13.6,13.6,13.4,13.2,12.5,11.7,12,12,12.5,12.5
US1COJF0011,GENESEE 1 SW,JEFFERSON,Colorado,7308,39.69,-105.29,M,M,M,M,M,M,M,M,M,M,M,M,M,M,M,M,M,5.5,M,M,M,M,M,M,6.6,M,M,M
US1COPT0017,REDSTONE 1.2 SW,PITKIN,Colorado,7299,39.17,-107.25,M,M,M,M,M,M,M,13,M,M,M,M,M,M,M,M,M,M,M,17.8,M,M,M,M,M,M,M,M
US1COEP0192,COLORADO SPRINGS 13.9 NNE,EL PASO,Colorado,7283,39.03,-104.75,M,M,M,5,M,M,M,M,M,M,M,M,1,1,1.5,M,M,4,M,M,M,0.5,M,M,M,5,M,M
US1COEP0055,MONUMENT 2.9 N,EL PASO,Colorado,7262,39.11,-104.86,T,T,T,7.5,5,3,2.5,1,T,T,0,0.5,T,2,1.5,1,0.5,6,5.5,3,4.5,1.2,0.5,T,4,3.5,2.5,2.5
US1COLP0106,BAYFIELD 5.5 N,LA PLATA,Colorado,7242,37.31,-107.61,M,M,M,M,M,M,M,M,M,M,M,M,8,23,M,24,M,M,M,M,M,M,M,M,M,M,M,M
US1COAU0037,PAGOSA SPRINGS 5.8 SSE,ARCHULETA,Colorado,7242,37.19,-106.98,12.5,11,11,9,8.8,8.5,8,8,7,7,6,5,M,M,14,11.5,M,M,14,13,12.5,13,11,10,M,9,8.5,8.5
US1COEP0017,MONUMENT 2.1 ENE,EL PASO,Colorado,7239,39.1,-104.83,T,T,0,7,3,2.8,T,T,T,T,T,0.4,T,1.5,1.5,1,0.3,7.9,5.5,2.5,1.4,T,T,T,3.5,1.5,T,M
US1COLA0033,AGUILAR 7.2 WSW,LAS ANIMAS,Colorado,7216,37.36,-104.77,T,T,T,1.8,T,T,T,T,T,T,T,T,T,1.2,1,T,0.7,7.8,7,3,2,T,T,T,2.4,1,T,T
US1COEP0357,COLORADO SPRINGS 12.5 NNE,EL PASO,Colorado,7211,39.0,-104.72,M,M,M,M,M,M,M,M,M,M,M,M,M,1.2,M,M,M,M,M,M,M,M,M,M,M,M,M,M
USC00052494,EASTONVILLE 2 NNW,EL PASO,Colorado,7208,39.11,-104.6,T,T,T,4,3,2,1,1,T,T,T,T,T,2,2,1,2,2,1,1,1,T,T,1,4,2,2,2
US1COLP0113,BAYFIELD 5.2 N,LA PLATA,Colorado,7207,37.31,-107.61,13,12,10.5,9.5,9.5,9,9,9,9,8,7.5,7.5,6.5,21,19.5,21,19.5,17.5,17.5,16,16,15,15.5,13.5,13,12.5,12.5,12.5
USC00056280,PALMER LAKE,EL PASO,Colorado,7199,39.11,-104.92,0,0,0,9,4,3,2,T,T,T,0,T,T,2,2,1,1,7,6,3,3,2,1,T,3,2,1,T
US1CORT0043,STEAMBOAT SPRINGS 1.9 E,ROUTT,Colorado,7198,40.47,-106.79,22,M,M,23,M,M,M,M,24.5,M,M,M,M,M,M,40.5,M,M,M,M,M,M,37,M,36,M,38.5,M
US1COEL0076,ELBERT 4.6 SSE,ELBERT,Colorado,7185,39.16,-104.5,M,M,M,M,M,M,M,M,M,M,M,M,M,M,1.4,M,M,M,M,M,M,M,M,M,M,M,M,M
US1COEP0271,BLACK FOREST 4.7 WSW,EL PASO,Colorado,7166,39.01,-104.74,T,T,T,2.3,1.5,T,T,T,T,T,T,0.5,0.3,1.7,2,1.7,1.2,4.3,T,T,T,T,T,T,5,3.5,2.5,1
US1COEG0006,BASALT 5.8 E,EAGLE,Colorado,7162,39.38,-106.92,1.5,1.5,1,3,3,5,4,3,2,2,1.5,1,4,3.5,2,5,4.5,3.5,3,3,4.5,3,2.5,1.5,3.5,1.5,1.5,2
US1COLP0111,DURANGO 1.4 NW,LA PLATA,Colorado,7154,37.3,-107.89,0,M,M,M,M,M,M,M,M,M,M,M,M,M,M,M,M,M,M,M,M,M,M,M,M,M,M,M
US1COEG0003,EDWARDS 1.3 WNW,EAGLE,Colorado,7154,39.65,-106.62,M,M,M,M,M,M,M,M,M,M,M,M,1.3,M,M,M,M,M,M,M,M,M,M,M,M,M,M,M
USC00055531,MESA VERDE NP,MONTEZUMA,Colorado,7140,37.2,-108.49,7,6,4,3,2,2,1,0,0,0,0,M,0,14,12,14,16,12,11,9,7,6,5,3,3,1,0,M
USC00057317,RYE 1SW,PUEBLO,Colorado,7139,37.91,-104.95,3,2,2,4,4,3,2,1,1,1,1,1,3,4,4,3,4,6,4,2,2,1,1,1,4,1,1,3
US1COLP0008,DURANGO 4.9 ESE,LA PLATA,Colorado,7121,37.26,-107.79,M,M,6,5,M,M,M,M,M,M,M,M,M,M,11,12,12,11,M,M,M,M,M,M,M,M,M,M
US1COPU0076,RYE 1.1 WSW,PUEBLO,Colorado,7116,37.91,-104.95,M,M,M,M,M,M,M,M,M,M,M,M,M,M,M,M,M,6,M,M,M,M,M,M,M,M,M,M
US1COLR0868,GLEN HAVEN 1.2 N,LARIMER,Colorado,7101,40.47,-105.43,0.5,0.5,0,0,0,T,0.5,0.5,0,0,0,0,2,3,3,3,2.5,6,5.5,4.5,4,3.5,3.5,3.5,6,6,7,6.5
US1COHF0041,WALSENBURG 11.5 W,HUERFANO,Colorado,7100,37.6,-104.99,M,M,M,3.5,M,M,M,M,M,M,M,M,M,2,2.2,1.5,0.5,2.5,1,M,2.5,M,M,M,5,5,M,M
US1COMZ0013,MANCOS 3.8 WNW,MONTEZUMA,Colorado,7048,37.38,-108.35,M,M,M,M,M,M,M,M,M,T,M,M,M,9,8,11,M,M,M,M,M,M,M,M,M,M,M,M
USC00057020,RIDGWAY,OURAY,Colorado,7047,38.15,-107.76,13,M,12,16,14,13,12,11,M,M,M,10,10,14,14,13,17,18,15,15,15,14,M,M,M,12,11,11
US1CORT0053,STEAMBOAT SPRINGS 0.7 ESE,ROUTT,Colorado,7047,40.48,-106.81,10.5,10.5,10,12,14,23.5,21,18,16.5,23,19,23.5,26.5,25.5,25.5,29,31,31,29,27.5,29.5,28,26.5,25,26.5,25,29,29.5
US1COBO0343,JAMESTOWN 2.5 SSE,BOULDER,Colorado,7043,40.08,-105.37,0,0,0,M,0,0.2,M,0,0,T,0,M,1.4,2.8,2.1,0.9,0,M,6.1,0.8,0.6,0,0,0,7.2,4.8,2.2,1.7
US1COEP0371,PEYTON 8.5 WSW,EL PASO,Colorado,7042,38.96,-104.61,T,T,T,1,T,T,T,T,0,0,M,0.1,0.1,1,1.5,1.5,T,3.5,2,T,T,T,T,T,7,4,2.5,2
US1COLP0083,HESPERUS 9.8 SW,LA PLATA,Colorado,7033,37.18,-108.15,M,M,M,M,M,M,M,M,M,M,M,M,M,8.1,8.1,11.9,M,M,M,M,M,M,M,M,M,M,M,M
US1CODR0014,CAHONE 4.6 NE,DOLORES,Colorado,7028,37.7,-108.76,5.5,M,M,M,M,M,M,M,M,M,M,M,M,M,M,M,M,M,M,M,M,M,M,M,M,M,M,M
USC00058690,VIRGINIA DALE 7 ENE,LARIMER,Colorado,7013,40.97,-105.22,0,0,0,0,0,0,0,0,0,0,0,0,1,4,4,3,3,6,6,5,3,2,2,2,4,4,4,5
USC00052790,EVERGREEN,JEFFERSON,Colorado,7000,39.64,-105.32,0,0,0,0,0,0,0,0,0,0,0,0,0,0,0,0,0,5,3,2,2,0,0,0,5,1,1,0
US1COMZ0055,YELLOW JACKET 1.5 NW,MONTEZUMA,Colorado,6972,37.54,-108.74,M,M,M,M,M,M,M,M,M,M,M,M,M,M,12,M,M,M,M,M,M,M,M,M,M,M,M,M
US1COEP0395,COLORADO SPRINGS 10.1 NNE,EL PASO,Colorado,6970,38.97,-104.75,M,M,M,M,M,M,M,M,M,M,M,M,M,M,M,M,M,M,M,M,M,M,M,M,5,M,M,M
USC00050756,BLACK FOREST 6WNW,EL PASO,Colorado,6955,39.03,-104.8,T,T,T,4,1,T,T,T,T,T,T,T,T,2,2,2,1,5,T,T,1,T,T,T,4,3,T,T
US1COEL0089,ELIZABETH 6.2 SSW,ELBERT,Colorado,6950,39.28,-104.65,M,M,M,3.5,2.5,2,1.5,T,M,M,M,M,M,M,1.5,1,T,M,M,T,1.3,T,M,M,2.5,M,M,T
USC00051786,CUMBRE VISTA - COLORADO SPRINGS 1,EL PASO,Colorado,6947,38.95,-104.71,T,0,0,1,0,0,0,0,0,0,0,T,T,1,2,1,1,4,3,1,1,T,T,0,6,5,3,1
US1COLR1026,DRAKE 4.3 WSW,LARIMER,Colorado,6945,40.41,-105.41,M,M,M,M,M,M,M,M,M,M,M,M,1.5,M,M,M,M,5,M,M,M,M,M,M,M,M,M,M
US1COEP0061,GLENEAGLE 0.4 WNW,EL PASO,Colorado,6917,39.05,-104.83,T,T,T,3,2,1.5,0.5,T,T,T,T,T,T,2.5,2,1,1,4.5,3,1.5,2,1,0.5,T,3.5,2,1,0.5
US1COMT0031,MONTROSE 7.3 ENE,MONTROSE,Colorado,6912,38.52,-107.75,M,M,M,3,M,M,M,M,M,M,M,M,M,M,M,M,M,M,M,M,M,M,M,M,M,M,M,M
US1COBO0159,BOULDER 3.6 WNW,BOULDER,Colorado,6904,40.04,-105.33,M,M,M,M,M,M,M,M,M,M,M,M,M,2.5,M,M,M,M,M,M,M,M,M,M,M,M,M,M
US1CODL0048,CRAWFORD 3.6 SW,DELTA,Colorado,6901,38.67,-107.66,M,M,M,2,M,M,0.5,M,M,2,M,2,0,7,6,7,7,5.5,5,4,3,2.5,2.5,M,0,M,2,M
USC00055327,MANCOS 1SW,MONTEZUMA,Colorado,6895,37.33,-108.32,3,2,1,0,0,0,0,0,0,0,0,0,3,9,7,9,8,7,6,5,4,3,2,1,1,0,0,0
US1COPT0015,CARBONDALE 10.0 S,PITKIN,Colorado,6889,39.25,-107.24,M,M,M,M,M,M,M,M,M,M,M,M,M,M,M,M,M,2.3,M,M,M,M,M,M,M,M,M,M
USC00051609,CIMARRON,MONTROSE,Colorado,6888,38.44,-107.56,0,0,0,1,1,T,T,M,M,2,0,0,0,3,1,3,2,1,0,0,0,0,0,0,0,2,M,M
US1CODG0315,PERRY PARK 3.7 ESE,DOUGLAS,Colorado,6881,39.25,-104.91,M,M,M,M,M,M,M,M,M,M,M,M,M,M,0.9,M,M,M,M,M,M,M,M,M,M,M,M,M
USC00051528,CHEESMAN,JEFFERSON,Colorado,6878,39.22,-105.28,0,0,M,2,1,0,0,0,0,0,0,0,0,1,1,0,0,4,2,0,1,0,0,0,2,1,0,0
USC00057936,STEAMBOAT SPRINGS,ROUTT,Colorado,6864,40.49,-106.82,11,11,11,12,14,23,22,18,16,22,21,23,24,25,M,27,30,M,M,M,M,M,26,25,24,M,M,M
US1COEP0356,COLORADO SPRINGS 7.3 NE,EL PASO,Colorado,6849,38.91,-104.73,M,M,M,0,M,M,M,M,M,M,M,0.5,0.5,1,1.5,M,M,5.5,M,M,M,M,M,M,8,3,M,M
US1COPT0016,REDSTONE 4.9 N,PITKIN,Colorado,6838,39.25,-107.24,1,1,0,8,7.5,M,7.5,7.5,5.5,6,7,7,7,8,7,7.5,8.5,9,7.5,7.5,6.5,5.5,5,5,5.5,4,5.5,6.5
USC00055733,MONUMENT 3S,EL PASO,Colorado,6819,39.06,-104.87,0,0,0,4,2,1,0,0,0,0,0,0,0,1,1,1,1,4,3,2,0,0,0,0,4,3,0,0
US1CORT0028,STEAMBOAT SPRINGS 0.6 NNW,ROUTT,Colorado,6810,40.49,-106.82,12,12,M,12.5,15,22.5,21,19.5,M,23,21,23,23,23,23.5,27,28,26.5,26,25,26,25,24,23,24,23.5,26,26.5
US1COMZ0035,CORTEZ 10 WNW,MONTEZUMA,Colorado,6806,37.41,-108.75,M,M,M,M,M,M,M,M,M,M,M,M,M,M,M,10.5,M,M,M,M,M,M,M,M,M,M,M,M
US1COHF0014,WALSENBURG 8.7 W,HUERFANO,Colorado,6789,37.65,-104.93,M,M,M,3,M,M,M,M,M,M,M,M,M,M,M,M,M,M,M,M,M,M,M,M,M,M,M,M
US1CORT0045,STEAMBOAT SPRINGS 1.5 WNW,ROUTT,Colorado,6776,40.49,-106.85,M,M,M,M,M,24,M,M,M,M,M,M,M,M,M,28.5,M,M,M,M,M,M,M,M,M,M,29.5,28.5
US1COEP0282,COLORADO SPRINGS 6.9 NE,EL PASO,Colorado,6773,38.92,-104.75,M,M,M,0.2,0,M,M,M,M,M,T,0.5,0.5,1.5,2,1.5,1,4.5,4,1.5,1,1,T,0,6.7,5.3,2,1.5
US1COLP0070,REDMESA 4.2 NW,LA PLATA,Colorado,6769,37.14,-108.23,3.5,M,1,0,M,M,M,M,M,M,M,M,M,8,8.5,10,8,7,7,5.5,5,4.5,M,M,1.5,1,0,M
US1COPU0099,RYE 1.0 SSE,PUEBLO,Colorado,6747,37.91,-104.92,M,M,M,M,M,M,M,M,M,M,M,0.7,M,M,M,M,M,4,3.5,M,M,M,M,M,M,M,M,0.8
US1CODL0036,CRAWFORD 2.3 SW,DELTA,Colorado,6742,38.68,-107.64,M,M,M,4.5,M,M,M,M,M,7.3,M,M,M,7.5,M,M,M,M,M,M,M,M,M,M,M,M,M,M
US1COEP0354,CALHAN 5.6 S,EL PASO,Colorado,6733,38.95,-104.31,M,M,M,2,1,1,M,M,M,M,M,0,0.5,2,2,2,1.5,2,1.5,M,M,M,M,M,6.5,3,1,M
US1COLR1019,ESTES PARK 10.5 SE,LARIMER,Colorado,6730,40.28,-105.37,M,M,M,M,M,M,M,M,M,M,M,M,M,M,M,M,M,M,M,M,M,2.5,M,M,M,M,M,M
US1COLR0672,VIRGINIA DALE 7.2 SSW,LARIMER,Colorado,6720,40.85,-105.4,M,M,M,M,T,T,M,M,M,M,M,M,2,3,2,2,2,5,4,3,2,1.5,0.5,M,7,5,3,M
US1CODG0293,FRANKTOWN 3.6 ESE,DOUGLAS,Colorado,6715,39.37,-104.68,T,T,T,3.5,2,1.5,1.5,T,T,T,T,0.5,T,1.5,1,1,T,1.5,1,T,2,1,T,T,2,1.5,1,1
US1COLR1240,LOVELAND 12.7 W,LARIMER,Colorado,6707,40.39,-105.31,M,M,M,M,M,M,M,M,M,M,M,M,0.5,M,M,M,M,M,M,M,M,M,M,M,M,M,M,M
US1COEP0408,COLORADO SPRINGS 8.0 NNE,EL PASO,Colorado,6704,38.93,-104.74,T,T,0,0.4,0,0,0,0,0,0,0,0.6,0.5,1.5,1.6,1.5,0.5,4.9,4,T,T,T,T,0,6.5,5.1,3,0.5
US1COEG0064,GYPSUM 3.2 SE,EAGLE,Colorado,6703,39.63,-106.9,M,M,M,M,M,M,M,M,M,M,M,T,M,M,M,M,M,M,M,M,M,M,M,M,M,M,M,M
US1COEP0378,PEYTON 9.2 SSW,EL PASO,Colorado,6698,38.91,-104.56,T,T,T,0.5,T,T,T,T,T,T,T,0.5,0.5,1.5,2,2,1,3.5,M,0.5,T,T,T,T,9.5,5,1.5,0.5
US1CODL0054,CEDAREDGE 1.3 E,DELTA,Colorado,6688,38.9,-107.9,7.5,7,6,3.5,3.5,3,2.5,2.5,2,3,2,2.5,1.5,2.5,3.5,4.5,4.5,4.5,3.5,3,2,1,1,0.5,T,T,T,T
US1COEP0258,COLORADO SPRINGS 7.0 NNW,EL PASO,Colorado,6688,38.93,-104.86,M,M,M,1,M,M,M,M,M,M,M,M,M,M,M,1,1,6,5,3,2.5,1,0.5,M,5,4,1.5,1
USC00051441,CEDAREDGE 1E,DELTA,Colorado,6687,38.9,-107.9,7,7,6,3,3,3,3,3,2,3,2,2,1,3,4,4,5,5,3,3,2,1,1,1,T,T,T,T
US1COLP0026,HESPERUS 13.3 SSW,LA PLATA,Colorado,6684,37.11,-108.14,2,1,1,0.5,0,M,0,0,0,0,0,0,0,7,8.5,10.5,8,8,7,6,4.5,4,3,1.5,1,0,0,0
US1COEP0207,COLORADO SPRINGS 7.1 NNW,EL PASO,Colorado,6683,38.94,-104.85,M,M,M,0.5,M,M,M,M,M,M,M,0.5,0.5,1,1.5,1.5,M,5,4,2.5,1,1,M,M,5,4,1,M
USC00055970,NORTHDALE,DOLORES,Colorado,6679,37.81,-109.01,6,5,4,1,1,1,1,T,T,1,T,0,T,6,6,10,10,9,8,8,7,6,5,4,4,4,3,3
US1COLR0735,LYONS 6.4 NW,LARIMER,Colorado,6665,40.28,-105.36,M,M,M,T,M,M,M,M,M,M,M,0,T,2.5,2.3,2,1.5,6,6,3,1.5,T,T,T,4.3,4,2.5,2.5
US1COEG0047,GYPSUM 2.5 ESE,EAGLE,Colorado,6650,39.63,-106.9,2.5,2.5,2.5,2.5,2,2,2,1.5,1,1,0.5,0.5,0.5,2,M,1,1,1,0.5,0.5,0.5,M,T,T,2.5,T,1,M
US1COEP0362,COLORADO SPRINGS 5.8 NNW,EL PASO,Colorado,6630,38.91,-104.87,M,M,M,0.8,M,M,M,M,M,M,M,0.4,M,M,2.2,M,M,M,M,M,M,M,M,M,M,5.6,M,M
US1COLP0110,DURANGO 9.4 NNE,LA PLATA,Colorado,6627,37.42,-107.83,M,M,M,M,M,1.5,M,M,M,M,M,M,M,M,M,M,M,M,M,6.5,M,4.5,M,3,M,M,M,M
USC00055795,BEULAH (MPEC),PUEBLO,Colorado,6625,38.05,-105.0,4,4,4,6,5,4,4,4,3,3,3,2,2,5,5,4,4,7,6,4,3,3,2,1,4,3,2,2
US1COEL0005,ELIZABETH 2.1 NW,ELBERT,Colorado,6616,39.38,-104.63,M,M,M,3.4,3,2,1.5,1,T,M,M,T,M,1,M,M,M,1.2,M,M,2,M,M,M,3.9,3,2,1
US1COLR0004,BELLVUE 5.9 W,LARIMER,Colorado,6612,40.6,-105.28,0,0,0,0,0,0,0.5,0,0,T,0,T,1.5,2.5,2.5,2,1.5,6.5,5.5,4.5,2,2,1,T,6,5,M,4
USC00052631,ELIZABETH 2NW,ELBERT,Colorado,6609,39.38,-104.63,0,0,0,3,3,2,1,1,T,T,T,T,T,1,1,T,T,1,1,T,2,1,1,T,4,3,2,1
US1COEP0037,COLORADO SPRINGS 5.7 WNW,EL PASO,Colorado,6602,38.91,-104.85,0,0,0,0.5,0,0,0,T,0,0,T,1,0.5,2.5,2,2,M,M,5,4.5,4,3,0,0,6,5,2.5,1.5
US1CODR0003,DOVE CREEK 12.4 SSW,DOLORES,Colorado,6602,37.6,-109.0,6.6,5,3,1,M,M,M,M,M,M,M,M,M,10,9,12,8.5,7,6.5,5.7,4.8,4,3.3,2.8,1.5,1,0.2,M
US1CODL0026,HOTCHKISS 7.1 WNW,DELTA,Colorado,6598,38.86,-107.83,5,4.5,4.5,0.5,0.5,0.5,0.5,T,M,1,T,0.5,0,1.5,2.5,4,5,4.5,4,2,1.5,1,T,T,T,T,T,T
US1COEL0075,ELIZABETH 2.0 NNE,ELBERT,Colorado,6584,39.39,-104.59,M,M,M,M,M,M,M,M,M,M,M,M,M,M,1,M,M,M,M,M,M,M,M,M,M,M,M,M
US1CODG0314,CASTLE ROCK 1.7 E,DOUGLAS,Colorado,6560,39.38,-104.82,T,0,0,5.5,4.5,4,4,3.5,3,3,3,3,3,4,4,3.5,3.5,6,5,3.5,5.5,4,3,1.5,5,4,1.5,1
US1COLP0091,FALFA 5.1 SW,LA PLATA,Colorado,6550,37.16,-107.86,5,4,3,2,2,1,T,T,T,T,T,T,T,7,7,10,7,7,7,M,M,4,3,2,2,T,T,T
USC00052435,DURANGO 8S,LA PLATA,Colorado,6549,37.16,-107.86,5,4,3,2,2,1,T,T,T,T,T,T,T,7,7,9,7,7,7,6,5,4,3,2,2,T,T,T
US1COEP0189,FALCON ESTATES 2.4 WNW,EL PASO,Colorado,6548,38.94,-104.84,M,M,M,M,M,M,M,M,M,M,M,M,M,1.2,M,M,M,M,M,M,M,M,M,M,M,M,M,M
USC00054254,IGNACIO 6ESE,LA PLATA,Colorado,6546,37.09,-107.53,4,4,3,2,1,0,0,0,0,0,0,0,0,6,7,8,7,7,7,6,4,3,3,2,1,1,0,0
US1COEP0359,COLORADO SPRINGS 7.2 ENE,EL PASO,Colorado,6534,38.89,-104.71,M,M,M,M,M,M,M,M,M,M,M,M,0.1,2.1,3.1,1.7,0.7,5,2.5,0.6,0.5,M,M,M,7.9,5.2,2.3,M
US1COEG0029,GYPSUM 1.9 SSW,EAGLE,Colorado,6529,39.62,-106.96,M,M,M,M,M,M,M,M,M,M,M,M,M,M,M,M,T,M,M,M,M,M,M,M,M,M,M,M
US1CODG0157,CASTLE ROCK 6.5 NNW,DOUGLAS,Colorado,6521,39.46,-104.89,M,M,M,M,M,M,M,M,M,M,M,M,M,M,M,M,M,M,M,M,7,M,M,M,M,M,M,M
US1COGF0049,CARBONDALE 4.6 NNE,GARFIELD,Colorado,6519,39.46,-107.18,10,10,9,9,9,11,10.5,9.5,9,10,8.5,8,9,8.5,8,12,11,11,10.5,10.5,10,10,10,9.5,10.5,10,11,11
US1COBO0482,BOULDER 4.5 W,BOULDER,Colorado,6513,40.04,-105.34,M,M,M,M,M,M,M,M,M,M,M,M,1,2,2,1.5,M,M,4,1,1,M,M,M,M,5,M,M
US1COPU0122,RYE 2.0 ESE,PUEBLO,Colorado,6506,37.92,-104.9,M,M,M,M,3,2,1,M,M,M,M,M,M,M,2.5,1.5,1,M,2,1,1.5,M,M,M,M,M,M,M
USC00051932,CRAIG 4SW,MOFFAT,Colorado,6494,40.45,-107.59,12,12,10,12,11,10,10,9,9,9,8,7,6,5,4,6,6,6,6,6,6,6,6,5,5,5,M,M
US1COEP0347,COLORADO SPRINGS 6.9 ENE,EL PASO,Colorado,6488,38.88,-104.71,M,M,M,T,M,M,M,M,M,M,M,T,T,1,1,1,1,6,4.5,2,T,T,M,M,8,4.5,1,T
US1COBO0137,LYONS 1.8 N,BOULDER,Colorado,6478,40.25,-105.26,M,M,M,M,M,M,M,T,M,M,M,T,0.5,2.5,2,1.5,1,6.5,6,4,3,1.5,1,0.5,5,4,3,2
US1COGF0088,GLENWOOD SPRINGS 5.9 S,GARFIELD,Colorado,6477,39.46,-107.32,M,M,M,M,M,M,M,M,M,M,5,M,M,M,M,M,M,M,M,M,M,M,M,M,M,M,M,M
USC00053867,HAYDEN,ROUTT,Colorado,6465,40.49,-107.25,12,11,13,11,16,14,12,12,13,13,12,12,14,16,15,17,17,16,16,16,16,16,15,15,15,14,16,16
US1COLA0087,TRINIDAD 4.5 SSW,LAS ANIMAS,Colorado,6429,37.11,-104.53,M,M,M,M,M,M,M,M,M,M,M,M,M,M,1.9,M,M,M,M,M,M,M,M,M,M,M,M,M
US1COEG0037,CARBONDALE 5.7 E,EAGLE,Colorado,6425,39.4,-107.11,M,M,M,6,M,7.5,6.5,M,M,5,4.5,M,2.5,3,M,7.5,5.5,M,M,M,3.5,M,M,M,3,M,1,M
US1COEP0387,COLORADO SPRINGS 3.3 NW,EL PASO,Colorado,6415,38.87,-104.86,M,M,M,M,M,M,M,M,M,M,M,M,1,3,3,3,2,7,7,5,2,1,M,M,7,7,3,M
US1CODG0174,CASTLE ROCK 4.6 NNW,DOUGLAS,Colorado,6411,39.44,-104.87,M,M,M,M,M,M,M,M,M,M,M,M,M,M,M,M,M,2.6,M,M,M,M,M,M,M,M,M,M
US1CODG0088,SEDALIA 7.2 S,DOUGLAS,Colorado,6409,39.33,-104.95,M,M,M,M,M,M,M,M,M,M,M,M,M,M,M,M,M,4,M,M,M,M,M,M,M,M,M,M
US1CODG0030,FRANKTOWN 3.5 NE,DOUGLAS,Colorado,6399,39.43,-104.7,M,M,M,2.5,1.5,0.5,0.5,T,M,M,M,0.5,T,1,1,M,M,1.5,0.5,M,2,1,T,M,3,2,0.5,T
US1COEP0228,COLORADO SPRINGS 5.0 NNE,EL PASO,Colorado,6393,38.9,-104.78,M,M,M,0.8,M,M,M,M,M,M,M,0.4,0.3,1.3,1.8,1,1.3,4.3,2,1,0.1,M,M,M,6.5,4.5,M,M
US1COEP0175,MANITOU SPRINGS 1.2 ESE,EL PASO,Colorado,6389,38.85,-104.89,T,0,M,T,M,M,M,M,M,M,M,0.5,0.5,2,2.5,2,1.5,6.5,5.5,3,3,2,1,T,9,6,3,2.5
US1CODG0218,THE PINERY 1.2 ESE,DOUGLAS,Colorado,6358,39.45,-104.71,M,M,M,2.8,M,M,M,M,M,M,M,0.3,T,1,M,M,M,1,M,M,2.5,M,M,M,4.5,M,M,0.5
US1CODL0040,CEDAREDGE 1.0 NE,DELTA,Colorado,6353,38.91,-107.91,4.5,M,M,M,M,M,M,M,M,M,M,M,M,M,M,M,M,M,M,M,M,M,M,M,M,M,M,M
US1CODG0062,CASTLE ROCK 1.7 SSW,DOUGLAS,Colorado,6340,39.35,-104.86,0,0,0,5.3,4.5,2.5,2,1.5,1,0.5,T,T,0.1,0.5,0.5,T,T,1.1,T,T,1.5,T,T,T,2.7,2,0.5,T
US1COEP0344,COLORADO SPRINGS 3.1 NW,EL PASO,Colorado,6327,38.86,-104.87,M,M,M,T,M,M,M,M,M,M,M,0.5,M,2.5,M,M,M,7,M,M,1.5,M,M,M,8.4,M,M,M
USC00053307,GLADE PARK 17W,MESA,Colorado,6322,38.95,-109.05,6,6,6,6,5,5,5,4,3,2,2,0,0,1,1,1,0,T,0,0,T,0,0,0,0,0,0,0
US1COEP0188,COLORADO SPRINGS 3.7 ENE,EL PASO,Colorado,6320,38.86,-104.76,T,T,T,T,T,T,T,T,0,0,T,0.4,T,1.5,2,2,1.5,6,5,2.5,2,1,T,T,6.7,4,1,T
USC00058436,TRINIDAD LAKE,LAS ANIMAS,Colorado,6308,37.15,-104.56,0,0,0,2,0,0,0,0,0,0,0,0,0,1,1,0,0,6,4,1,2,T,0,0,T,0,0,0
USC00058781,WALSENBURG 1 NW,HUERFANO,Colorado,6290,37.63,-104.8,0,0,0,6,2,1,T,T,0,0,0,T,T,2,1,1,T,4,1,T,3,T,0,0,2,1,T,0
US1CODG0245,CASTLE ROCK 0.5 NNW,DOUGLAS,Colorado,6282,39.39,-104.85,M,M,M,4,3,2.8,2,1.5,1,0.5,M,M,M,M,M,M,M,M,M,M,M,M,M,M,M,M,M,M
US1COEP0309,COLORADO SPRINGS 2.7 NE,EL PASO,Colorado,6279,38.86,-104.79,M,M,M,T,M,M,M,M,M,M,T,0.8,M,2.5,3,M,M,5.5,4.8,3.4,2,T,M,M,7,5,M,M
US1COHF0021,WALSENBURG 0.8 NW,HUERFANO,Colorado,6274,37.63,-104.79,M,M,M,M,M,M,M,M,M,M,M,M,M,3,M,M,M,M,M,M,M,M,M,M,M,M,M,M
US1COEP0333,COLORADO SPRINGS 5.0 ENE,EL PASO,Colorado,6269,38.85,-104.73,M,M,M,M,M,M,M,T,M,M,M,0.5,0.5,2,3,2,1,7,4.5,2.5,1,0.5,M,M,8,4,M,M
US1COMT0050,MONTROSE 6.3 WSW,MONTROSE,Colorado,6266,38.46,-107.98,0.5,0.5,0.5,0,T,T,T,0,0,T,0,0,0,6,8.5,5.5,7,6,4.5,3,1.5,1.5,1,0.5,0.5,T,T,T
US1COEL0095,ELIZABETH 10.5 NNE,ELBERT,Colorado,6246,39.5,-104.52,M,M,M,1.5,T,T,T,T,M,M,M,M,M,1.5,1,0.5,T,1,M,M,3.5,2,T,M,4,2,1,T
US1COLA0085,TRINIDAD 12.8 NNW,LAS ANIMAS,Colorado,6233,37.35,-104.58,M,M,M,M,M,M,M,M,M,M,M,M,M,2,M,M,M,M,M,M,M,M,M,M,M,M,M,M
US1CODG0294,THE PINERY,DOUGLAS,Colorado,6228,39.45,-104.74,M,M,M,2.5,0.2,0.1,T,T,M,M,M,M,T,1.1,1,T,T,1.1,T,T,3.4,T,T,M,4.9,1.1,0.2,T
USC00055484,MEEKER,RIO BLANCO,Colorado,6227,40.04,-107.91,8,7,6,5,5,9,8,7,6,5,3,2,2,5,5,6,6,6,6,5,5,4,4,3,2,1,1,0
US1COEP0064,COLORADO SPRINGS 2.1 NW,EL PASO,Colorado,6192,38.85,-104.85,M,M,M,T,M,M,M,M,M,M,M,0.8,0.5,2.5,2.5,2,2,6,5,4,3,2,0.5,T,9.2,5.5,3,1.5
US1COMZ0043,CORTEZ 2.3 NW,MONTEZUMA,Colorado,6189,37.37,-108.61,M,M,M,M,M,M,M,M,M,M,M,M,M,M,M,12,M,M,M,M,M,M,M,M,M,M,M,M
USC00051401,CASTLE ROCK,DOUGLAS,Colorado,6183,39.41,-104.91,M,0,0,3,2,1,M,M,0,0,0,0,0,M,M,M,M,M,M,M,M,M,M,M,3,0,0,M
USW00093037,COLORADO SPRINGS MUNICIPAL AP,EL PASO,Colorado,6180,38.81,-104.69,0,0,0,0,0,0,0,0,0,0,0,T,T,2,3,2,5,6,4,2,1,T,0,0,6,2,T,0
US1COGF0047,CARBONDALE 0.5 W,GARFIELD,Colorado,6169,39.4,-107.22,5.5,M,M,5,M,6.5,M,M,M,M,T,T,T,0.5,T,3.5,1,0.5,M,T,T,T,M,M,0.5,M,0.5,T
US1COGF0085,CARBONDALE 0.7 NNW,GARFIELD,Colorado,6167,39.41,-107.22,M,M,M,M,M,2.2,M,M,M,M,M,M,M,M,M,M,M,M,M,M,M,M,M,M,M,M,M,M
US1COLA0071,TRINIDAD 1.9 ENE,LAS ANIMAS,Colorado,6167,37.18,-104.47,M,M,M,M,M,M,M,M,M,M,M,M,M,M,M,M,M,M,5,4,M,2,M,M,M,M,M,M
USC00051777,COLORADO SPRINGS AIRPORT SNOW,EL PASO,Colorado,6165,38.82,-104.7,0,0,0,0,0,0,0,0,0,0,T,T,1,3,2,2,5,5,2,1,T,0,0,3,2,T,0,0
USC00051886,CORTEZ,MONTEZUMA,Colorado,6165,37.34,-108.6,1,T,0,0,0,0,0,0,0,0,0,0,0,7,6,10,6,5,4,4,3,2,1,T,T,T,0,0
US1COMZ0034,CORTEZ 1.2 SW,MONTEZUMA,Colorado,6163,37.34,-108.59,0.5,T,T,T,0,0,0,0,0,M,0,0,0,8,6.5,10,5,4,2.5,2.5,2,1,1,0.5,0.5,T,T,T
US1COAR0387,AURORA 12.0 SE,ARAPAHOE,Colorado,6131,39.57,-104.67,M,M,M,M,M,M,M,M,M,M,M,0.3,M,1.1,M,M,M,M,M,M,4.7,M,M,M,6.7,M,M,M
US1COEL0046,KIOWA 12.7 ENE,ELBERT,Colorado,6130,39.41,-104.24,M,M,M,1.4,M,M,M,T,M,M,M,T,T,2,2,1.5,M,1,0.5,T,1,M,M,M,3.2,2,T,T
US1CODG0133,LONE TREE 2.0 SW,DOUGLAS,Colorado,6119,39.51,-104.91,M,M,M,M,M,M,M,M,M,M,M,M,M,M,M,M,M,2.5,M,M,M,M,M,M,M,M,M,M
USC00057249,ROXBOROUGH STATE PARK,DOUGLAS,Colorado,6116,39.43,-105.07,0,0,0,2,0,0,0,0,0,0,0,0,0,1,1,1,0,8,3,0,2,0,0,0,12,3,0,0
US1COAR0288,FOXFIELD 3.7 ESE,ARAPAHOE,Colorado,6110,39.57,-104.73,M,M,M,M,M,M,M,M,M,M,M,M,M,M,M,M,M,M,M,M,4.3,M,M,M,5.9,M,M,M
US1CODL0025,PAONIA 2.1 SSE,DELTA,Colorado,6099,38.84,-107.57,M,M,M,M,M,M,M,M,M,M,M,M,M,M,M,M,M,8,M,M,M,M,M,M,M,M,M,M
US1COLR0567,LA PORTE 10.0 NNW,LARIMER,Colorado,6095,40.76,-105.2,M,M,M,0,0,T,0,T,T,T,T,T,1,2.5,2.5,2,1.5,6.5,5.5,3.5,2,1,0.5,0.5,4,2.5,2,1.5
US1COEP0385,COLORADO SPRINGS 1.5 N,EL PASO,Colorado,6085,38.86,-104.82,0.5,0.2,0,T,0,0,0,T,0,0,0,0.9,T,1.9,2.1,2.1,2,5.5,3.9,2,1.5,1.3,0.5,0.5,6.5,3.9,1.1,0.8
US1COEP0060,COLORADO SPRINGS 1.3 ESE,EL PASO,Colorado,6081,38.83,-104.8,M,M,M,M,M,M,M,M,M,M,M,M,M,M,4,M,M,6,M,M,M,M,M,M,M,M,M,M
US1COAR0381,BENNETT 10.8 SSW,ARAPAHOE,Colorado,6078,39.61,-104.51,0,0,0,T,0,0,0,T,0,0,0,T,T,1,1,1,0.5,1,0.5,T,2,1,0,0,4,3,2,1
US1COEP0389,COLORADO SPRINGS 1.8 NNW,EL PASO,Colorado,6078,38.86,-104.83,M,M,M,M,M,M,M,M,M,M,M,M,M,M,2,M,M,M,M,M,M,M,M,M,M,M,M,M
US1COEP0194,COLORADO SPRINGS 1.1 NE,EL PASO,Colorado,6063,38.84,-104.81,T,T,T,T,T,0,0,0,0,0,T,1,0.5,2,3,2.5,2,6,4.5,2.5,1.5,0.5,T,T,7,4,0.5,T
US1COEP0058,IVYWILD 0.6 E,EL PASO,Colorado,6058,38.8,-104.84,T,T,T,T,T,T,T,0,0,0,0,0.5,1,3,3.5,3,2.5,4.5,3.5,3.5,3,3,2.5,1.5,9,7,4.5,3.5
US1COJF0201,LITTLETON 8.2 WSW,JEFFERSON,Colorado,6052,39.58,-105.16,M,M,M,M,M,M,M,M,M,M,M,0.1,0.1,1,M,M,M,M,M,M,M,M,M,M,M,M,M,M
US1COGF0040,GLENWOOD SPRINGS 1.7 NW,GARFIELD,Colorado,6048,39.57,-107.35,4.6,4.1,3.4,3.4,3.4,5.3,4.1,3.7,3.2,2.8,2.3,1.5,1.5,1.4,1.4,5.1,4.5,3.7,3.1,3.1,2.3,2.7,1.4,1.1,1.1,0.9,3,2.2
US1COME0053,COLLBRAN 0.2 ESE,MESA,Colorado,6041,39.24,-107.96,10,M,M,9,9,M,M,M,M,M,M,M,M,M,M,4,M,4,M,3,2,2,M,M,1,M,1,M
US1COMT0015,MONTROSE 2.9 ESE,MONTROSE,Colorado,6041,38.46,-107.82,M,M,M,T,M,M,M,M,M,M,M,M,M,6.5,7,6.5,6,5.5,5,4,2,2,T,T,M,M,M,M
US1COGF0071,SILT 2.9 NNW,GARFIELD,Colorado,6032,39.59,-107.67,M,M,M,M,M,3,M,M,M,M,M,M,M,0.5,1,5,M,M,M,M,M,M,M,M,M,M,M,M
US1COEP0264,COLORADO SPRINGS 3.5 S,EL PASO,Colorado,6031,38.78,-104.83,M,M,M,M,M,M,M,M,M,M,M,0.5,0.7,2.5,3,3,2.5,4,4,2,1,0.7,0.5,T,7.5,4.5,2,0.5
USC00058429,TRINIDAD,LAS ANIMAS,Colorado,6028,37.18,-104.49,0,0,0,1,T,0,0,0,0,0,0,0,T,1,T,T,6,4,2,T,T,T,0,0,T,0,0,0
US1COEP0425,COLORADO SPRINGS 0.6 NE,EL PASO,Colorado,6022,38.84,-104.81,M,M,M,M,M,M,M,M,M,M,M,0.5,0.5,2.5,2.5,0.5,0.5,4,M,2.5,1.5,1,0.5,M,7,5,1,M
USC00051743,COLLBRAN 1WSW,MESA,Colorado,6007,39.24,-107.98,3,2,1,2,1,1,1,T,T,T,T,0,0,1,1,4,4,5,4,3,3,1,T,T,1,T,T,T
US1COEP0303,COLORADO SPRINGS 1.1 W,EL PASO,Colorado,6007,38.83,-104.84,M,M,M,M,M,M,M,M,M,M,M,0.5,0.5,3.5,3.5,3,2.5,6,5,3.5,M,1.5,M,M,8.5,M,M,1
US1COEP0210,COLORADO SPRINGS 3.0 S,EL PASO,Colorado,5996,38.79,-104.81,M,M,M,M,M,M,M,M,M,M,M,0.7,1.3,3.5,4.2,4,3,5.3,4.5,4,4,3.5,2,1,8,5.5,4,2.5
USC00057618,SHOSHONE,GARFIELD,Colorado,5991,39.57,-107.23,M,M,M,M,M,M,M,9,8,7,6,5,M,M,M,M,M,M,M,M,M,4,3,2,3,M,2,1
US1CODG0292,PARKER 3.5 WNW,DOUGLAS,Colorado,5987,39.52,-104.83,T,T,T,0.8,T,T,T,T,T,T,T,0.1,0.1,2.1,1.5,0.5,T,1.7,0.5,T,2.5,T,T,T,6,4,2,1.5
US1COEP0180,COLORADO SPRINGS 6.6 SE,EL PASO,Colorado,5964,38.78,-104.73,0,0,0,0,0,0,0,0,0,0,M,0.5,0.5,2.5,3,M,M,4.5,4,M,M,M,0,0,6,3,M,0
US1COGF0060,GLENWOOD SPRINGS 2.7 SSE,GARFIELD,Colorado,5945,39.51,-107.32,10.2,10,9.5,9.5,9.5,9.5,M,M,M,8.5,8.5,7,7,7.5,6.5,12,11,12,M,M,8,M,M,M,M,M,M,M
US1CODL0021,CEDAREDGE 2.3 W,DELTA,Colorado,5940,38.89,-107.97,M,M,M,M,M,M,M,M,M,0.2,M,M,M,M,M,M,M,M,M,M,M,M,M,M,M,M,M,M
US1COGF0033,GLENWOOD SPRINGS 5.3 SSE,GARFIELD,Colorado,5940,39.48,-107.29,10.5,9.5,9.5,9,9,13.5,11.5,10.5,10,9.5,9,9,8,8.5,8.5,13,11.5,13,12,11,11,10.5,10,10,10,9.5,11,11
US1CODL0043,HOTCHKISS 5.4 NE,DELTA,Colorado,5935,38.86,-107.65,M,M,M,M,M,M,M,M,M,M,M,M,M,M,M,2.5,M,1,M,M,M,M,M,M,M,M,M,M
US1CODG0074,HIGHLANDS RANCH 3.2 ESE,DOUGLAS,Colorado,5923,39.54,-104.91,T,T,T,T,T,T,T,0,0,0,0,T,T,0.5,0.5,T,0,2,1,0.5,3,2,1,0.5,10.5,8,6,4.5
US1COSM0010,REDVALE 22.8 SW,SAN MIGUEL,Colorado,5923,37.92,-108.68,0.5,0,0,0,0,0,0,0,0,0,0,0,0,7,7,6.5,6,5,5.5,3,3,2,2,2,2,1,1,1
US1COJF0340,LAKEWOOD 1.5 WSW,JEFFERSON,Colorado,5922,39.69,-105.14,T,T,T,0,0,0,0,0,0,0,0,T,0.5,1,1,T,T,5.5,3.5,1,1,T,T,M,9.5,7,3.5,3
US1CODG0146,PARKER 2.1 WNW,DOUGLAS,Colorado,5922,39.52,-104.8,M,M,M,1,M,M,M,M,M,M,M,M,T,1,1,M,M,M,M,M,4,2.5,T,T,6.5,4,2.5,2
US1COMT0049,MONTROSE 1.5 ESE,MONTROSE,Colorado,5918,38.47,-107.85,T,M,M,0.5,M,M,M,M,M,M,M,M,M,6,5,5,5,4,2.5,2.5,1.5,1,T,M,M,M,M,M
US1COMT0036,MONTROSE 1.6 E,MONTROSE,Colorado,5917,38.48,-107.84,T,T,T,0.5,T,T,T,T,0,0,0,0,0,6.5,7.5,6.5,7,5,4,4,4,2,1,T,T,T,T,T
USC00056816,RALSTON RESERVOIR,JEFFERSON,Colorado,5898,39.83,-105.24,M,M,0,0,0,0,0,0,0,M,M,0,0,1,1,0,0,7,6,2,0,0,0,0,4,2,1,1
US1COMT0013,MONTROSE 1.2 WSW,MONTROSE,Colorado,5886,38.47,-107.89,M,M,M,1,M,M,M,M,M,M,M,M,M,7.5,7,7,8,6,5.5,5,3,1.5,1,M,M,M,M,M
US1COMT0028,MONTROSE 2.0 SSE,MONTROSE,Colorado,5886,38.45,-107.86,M,M,M,M,M,M,M,M,M,M,M,M,M,8.5,10,M,10,M,M,M,M,M,M,M,M,M,T,M
US1COMF0028,DINOSAUR 0.3 SW,MOFFAT,Colorado,5871,40.24,-109.01,4.5,4.5,4,3,2.5,2.5,1.5,0.5,T,T,T,T,0,1.5,1,2,2,2,1,T,T,T,T,T,T,T,T,T
US1COAR0358,CENTENNIAL 6.9 E,ARAPAHOE,Colorado,5862,39.6,-104.74,M,M,M,0.5,M,M,M,M,M,M,M,M,M,M,M,M,M,1.2,M,M,M,M,M,M,7.5,M,M,M
US1COJF0212,LITTLETON 6.4 W,JEFFERSON,Colorado,5849,39.61,-105.14,M,M,M,M,M,M,M,M,M,M,M,T,T,0.5,0.5,M,M,5.5,3,T,1,T,M,M,7,4,3,1.5
USC00058022,STRONTIA SPRINGS DAM,DOUGLAS,Colorado,5838,39.43,-105.12,0,0,0,0,0,0,0,0,0,0,0,0,0,1,1,0,0,7,7,3,3,2,0,M,M,1,1,1
US1COGF0001,GLENWOOD SPRINGS .64 S,GARFIELD,Colorado,5823,39.54,-107.33,5,5,4,4,4,6,4,4,3.5,3,3,2.5,2,3,3,8.5,8,6,5.5,4,3.5,3.5,3.5,3,3.5,2.5,4.5,2.5
US1COMT0055,MONTROSE 1.8 SW,MONTROSE,Colorado,5815,38.46,-107.9,M,M,M,M,M,M,M,M,M,M,M,M,M,M,6.6,M,M,M,M,M,M,M,M,M,M,M,M,M
US1COMT0052,MONTROSE 1.8 WSW,MONTROSE,Colorado,5796,38.47,-107.9,M,M,M,M,M,M,M,M,M,M,0,M,M,M,M,M,M,M,M,M,M,M,M,M,M,M,M,M
US1COJF0338,KEN CARYL 0.6 WSW,JEFFERSON,Colorado,5785,39.57,-105.12,M,M,M,M,M,M,M,M,M,M,M,M,M,1,M,M,M,6.5,M,M,M,M,M,M,11.5,M,M,M
USC00051772,COLORADO NATIONAL MONUMENT,MESA,Colorado,5779,39.1,-108.73,M,M,M,M,M,M,M,M,0,0,M,M,M,M,M,1,0,M,M,M,0,M,M,0,0,0,0,0
US1CODG0176,HIGHLANDS RANCH 0.6 SSE,DOUGLAS,Colorado,5774,39.55,-104.97,T,T,T,T,T,T,T,T,T,T,T,T,0.2,0.5,0.5,T,T,2,0.5,T,1.5,T,T,T,10,6,2,2
US1COPU0079,RYE 11.2 E,PUEBLO,Colorado,5774,37.95,-104.73,M,M,M,2,1.5,1,0.5,T,T,T,0.5,1,M,2,1.5,1,0.5,3,T,T,T,M,M,M,M,M,M,1
US1COMT0045,MONTROSE 8.1 WNW,MONTROSE,Colorado,5769,38.52,-108.01,M,M,M,1,M,T,M,M,M,T,M,M,M,3,4,3.5,5,4.5,4,4,2.5,1,T,T,T,M,M,M
US1COAR0321,LITTLETON 5.0 ESE,ARAPAHOE,Colorado,5761,39.57,-104.93,M,M,M,M,M,M,M,M,M,M,M,M,M,M,M,M,M,2,M,M,1.8,M,M,M,13.5,M,M,M
US1COJF0376,LITTLETON 6.0 W,JEFFERSON,Colorado,5760,39.62,-105.13,M,M,M,M,M,M,M,M,M,M,M,M,M,0.5,0.5,T,0,5.5,4,1,1.5,T,0,M,7.5,6,3,1
US1COEP0412,SECURITY 2.2 NW,EL PASO,Colorado,5753,38.74,-104.73,0,0,0,0,0,0,0,0,0,0,0,0.5,0.5,3,3,2.5,4,4,3.5,3.5,T,M,0,0,6,2.5,T,0
US1COAR0224,STRASBURG 11.9 S,ARAPAHOE,Colorado,5751,39.56,-104.33,M,M,M,M,M,M,M,M,M,M,M,M,M,1.5,M,M,M,0.5,M,M,3,M,M,M,4,M,M,M
US1COJF0333,LAKEWOOD 1.7 SW,JEFFERSON,Colorado,5744,39.68,-105.14,T,T,T,T,0,0,0,0,0,0,0,T,T,T,T,T,T,5,3,1.5,1.5,T,T,T,7,3,1.5,1
USC00052668,ELLICOTT 7S,EL PASO,Colorado,5737,38.74,-104.4,0,0,0,0,0,0,0,0,0,0,0,0,0,2,1,1,1,3,1,0,0,0,0,0,0,1,T,0
US1COAR0266,AURORA 4.5 SE,ARAPAHOE,Colorado,5735,39.65,-104.76,M,M,M,T,M,M,M,0.1,M,M,M,0.1,0.1,1.5,M,M,M,M,M,M,M,M,M,M,9,M,M,M
US1COEP0291,COLORADO SPRINGS 8.2 SE,EL PASO,Colorado,5733,38.74,-104.73,M,M,M,0,M,M,M,M,M,T,T,0.5,0.5,2,2.5,2,1.5,2.5,2,0,0,M,M,M,6.5,3,M,M
US1CODL0016,HOTCHKISS 4.7 W,DELTA,Colorado,5733,38.81,-107.8,0,0,0,T,0,0,0,0,0,T,0,0,0,1,2,M,2.5,M,1,0.5,0,0,0,0,0,0,0,0
US1COMT0009,MONTROSE 4.0 NW,MONTROSE,Colorado,5728,38.53,-107.92,T,T,T,0.5,T,M,0,0,0,0,0,0,0,4,4,4.5,6.2,6,5.5,4.5,2,2,2,T,T,T,T,T
US1CODG0152,HIGHLANDS RANCH 2.8 SW,DOUGLAS,Colorado,5723,39.53,-105.01,M,M,M,M,M,M,M,M,M,M,M,M,M,M,M,M,M,3,1.5,M,M,M,M,M,13.4,9,7,6.5
US1COJF0457,ARVADA 3.5 WNW,JEFFERSON,Colorado,5709,39.85,-105.16,M,M,M,M,M,M,M,T,M,M,M,0.8,0.5,1,M,T,M,4.7,2,M,1,M,M,M,9.5,4,2.5,1.5
US1COWE0127,CARR 0.6 S,WELD,Colorado,5698,40.89,-104.88,M,M,M,M,M,M,M,M,M,M,M,T,1.5,3,3,2,2.5,2,1,M,M,M,M,M,1,0.5,M,M
US1COPU0014,PUEBLO 17 W,PUEBLO,Colorado,5695,38.22,-104.94,M,M,M,2.8,M,M,M,M,M,M,M,0.9,M,1.2,1,M,M,1.5,M,M,M,M,M,M,2.4,M,M,M
US1CODG0250,HIGHLANDS RANCH 3.0 WSW,DOUGLAS,Colorado,5689,39.53,-105.02,M,M,M,T,M,M,M,M,M,M,M,0.1,0.1,0.8,M,M,M,2.8,M,M,1.5,M,M,M,14.5,M,M,M
US1CODL0049,HOTCHKISS 4.9 W,DELTA,Colorado,5688,38.81,-107.81,0,0,0,M,0,0,0,0,0,0,0,0,0,1,1.5,2.5,2,1,0.5,0,0,0,0,0,0,0,0,0
US1COAR0340,AURORA 3.4 SSE,ARAPAHOE,Colorado,5668,39.66,-104.78,M,M,M,M,M,M,M,M,M,M,M,0.1,M,1.3,M,M,M,M,M,M,2.5,M,M,M,9,M,M,M
US1COAR0259,AURORA 4.0 SSE,ARAPAHOE,Colorado,5660,39.65,-104.78,M,M,M,0,M,0,0,T,M,M,0,T,0.1,1.1,1,1,0.5,1,0.5,0,3.3,2,0,0,9.5,8.5,5.5,5
US1COLR0623,FORT COLLINS 5.4 WSW,LARIMER,Colorado,5658,40.52,-105.16,M,M,M,M,M,M,M,M,M,M,M,M,0.4,2.4,2,2,1.5,7.5,6,M,M,2,M,M,M,2.5,M,M
US1COLN0054,LIMON 6.9 NE,LINCOLN,Colorado,5649,39.33,-103.58,M,M,M,M,M,M,M,M,M,M,M,M,M,2.5,M,M,M,M,M,M,M,M,M,M,2.5,M,M,M
US1COJF0335,LITTLETON 4.6 W,JEFFERSON,Colorado,5644,39.59,-105.1,M,M,M,M,M,M,M,M,M,M,M,M,0.1,M,M,M,M,4.5,M,M,M,M,M,M,M,M,M,M
USC00054762,LAKEWOOD,JEFFERSON,Colorado,5639,39.75,-105.12,0,0,0,0,0,0,0,0,0,0,0,0,0,1,1,M,0,4,1,0,0,0,0,0,M,6,4,3
USC00050214,ALTENBERN,GARFIELD,Colorado,5636,39.5,-108.38,3,3,3,3,3,3,2,0,0,0,0,0,1,2,2,2,3,2,2,2,0,0,0,0,0,0,1,0
US1COAR0249,AURORA 5.7 E,ARAPAHOE,Colorado,5635,39.69,-104.71,M,M,M,M,M,M,M,M,M,M,M,0,M,1.5,M,M,M,1,M,M,3.5,1.5,M,M,9.5,4.5,2,1.5
US1COAR0214,CENTENNIAL 2.0 SW,ARAPAHOE,Colorado,5630,39.58,-104.97,M,M,M,M,M,M,M,M,M,M,M,M,M,M,M,M,M,M,M,M,M,M,M,M,M,15,M,M
US1COJF0184,LITTLETON 4.7 WSW,JEFFERSON,Colorado,5616,39.59,-105.1,M,M,M,M,M,M,M,M,M,M,M,M,M,M,M,M,M,M,M,M,1.5,M,M,M,9.6,M,M,M
US1COLR0050,LYONS 4.8 N,LARIMER,Colorado,5616,40.29,-105.27,T,0,0,0,0,0,0,0,0,0,0,T,0.5,2.5,2.5,2,1.5,6,3,2,T,T,T,T,3,1.5,1,T
USC00055402,MARSTON FILTER PLANT,DENVER,Colorado,5608,39.62,-105.07,0,0,0,0,0,0,0,0,0,0,0,0,0,0,0,0,0,3,2,0,1,0,0,0,8,2,1,1
US1COME0136,DE BEQUE 7.1 SSE,MESA,Colorado,5605,39.24,-108.15,M,M,M,M,M,M,M,M,M,M,M,M,M,M,M,1,M,M,M,M,M,M,M,M,M,M,M,M
US1COAR0313,AURORA 2.1 ESE,ARAPAHOE,Colorado,5602,39.69,-104.78,0,0,0,T,0,0,0,T,0,T,0,0.1,T,1.2,1.2,0.5,0.1,1.5,0.5,0,3.5,1,0,0,10.8,8,4.5,3.5
US1COJF0240,ARVADA 3.8 W,JEFFERSON,Colorado,5598,39.82,-105.18,M,M,M,M,M,M,M,M,M,T,T,0.5,T,0.5,1,0.5,M,5,4,3,2,1,M,M,8,6,4,3
US1COAR0270,AURORA 0.7 WSW,ARAPAHOE,Colorado,5598,39.69,-104.82,M,M,M,M,M,M,M,M,M,M,M,M,M,M,M,M,M,M,M,M,M,M,M,M,M,M,M,4
US1COBO0452,BOULDER 2.2 NW,BOULDER,Colorado,5597,40.04,-105.29,0,0,0,0,0,0,0,T,0,T,T,0.8,1,2.5,2,2,8.8,9,9,6,3,0,0,0,7.6,5,0,0
USC00053258,GENOA,LINCOLN,Colorado,5591,39.28,-103.49,0,M,M,0,0,M,M,0,0,M,M,0,M,M,3,3,2,2,2,1,M,0,M,M,2,1,0,M
US1COEP0416,FOUNTAIN 0.6 N,EL PASO,Colorado,5589,38.68,-104.69,M,M,M,M,M,M,M,M,M,T,T,1,M,3.5,4,4,3,4,M,T,M,M,M,M,6,1,M,M
USC00054452,KASSLER,JEFFERSON,Colorado,5586,39.49,-105.1,0,0,0,0,0,0,0,0,0,0,0,0,0,M,M,0,0,6,3,2,2,0,0,0,12,4,2,1
US1COJF0061,CHATFIELD DAM 2 NW,JEFFERSON,Colorado,5583,39.58,-105.08,0,0,0,0,0,0,0,0,0,0,0,T,T,0.5,0.5,0,0,4.1,3,0,1.7,0,0,0,11.8,8.5,3,1
US1COJF0504,ARVADA 3.6 WSW,JEFFERSON,Colorado,5579,39.79,-105.16,0,0,0,0,0,0,0,0,0,0,0,M,M,0.5,1,0,0,5,4,2.5,M,0,0,0,6.5,5.5,M,M
US1COJF0003,DENVER 6.1 WSW,JEFFERSON,Colorado,5573,39.7,-105.1,M,T,T,T,T,T,T,T,T,T,T,T,T,T,T,T,T,5,4,T,1.5,T,T,M,M,M,4,3
USC00055020,LIMON ATWATER RANCH,ELBERT,Colorado,5570,38.95,-103.77,M,M,M,M,M,M,M,M,M,M,M,M,M,3,M,M,M,M,M,M,M,M,M,M,4,M,M,M
US1COJF0290,WHEAT RIDGE 2.8 WSW,JEFFERSON,Colorado,5565,39.76,-105.15,M,M,M,M,M,M,M,M,M,M,M,T,T,0.5,0.5,0,M,4.5,2.5,0,0.5,0,M,M,7.5,4,2,0.5
US1COBO0286,BOULDER 3.5 S,BOULDER,Colorado,5560,39.98,-105.26,T,0,0,0,0,0,0,T,T,T,T,0.5,1,2,2,1.5,0.5,8,4,2,2,1,0.5,M,8,5,M,M
US1COJF0332,LITTLETON 5.7 SW,JEFFERSON,Colorado,5553,39.54,-105.1,0,0,0,0,0,0,0,0,0,0,0,T,T,1,0.5,T,0,6.5,2,T,1.5,T,T,0,12,7,4,2.5
US1COJF0251,ARVADA 3.3 NNW,JEFFERSON,Colorado,5531,39.85,-105.1,M,M,M,M,M,M,M,T,M,M,M,M,M,M,M,M,M,M,M,M,M,M,M,M,8,M,M,M
US1COBO0485,BOULDER 2.3 SSW,BOULDER,Colorado,5531,40.0,-105.27,M,M,M,M,M,M,M,M,M,M,M,M,M,M,M,M,M,M,M,M,M,M,M,M,M,M,M,2
US1COAR0105,DENVER 6.3 SSE,ARAPAHOE,Colorado,5522,39.68,-104.88,M,M,M,M,M,M,M,M,M,M,M,T,T,1,0.5,M,M,2,M,M,4,1,M,M,13,M,M,M
US1COJF0179,LAKEWOOD 2.2 ESE,JEFFERSON,Colorado,5514,39.68,-105.08,M,M,M,M,M,M,M,M,M,M,M,0.3,0.1,0.9,0.5,T,M,5,2,0.5,2,M,M,M,7.5,5,2,1.5
US1COAR0245,DENVER 5.1 SSE,ARAPAHOE,Colorado,5512,39.66,-104.92,M,M,M,M,M,M,M,M,M,M,M,T,T,0.5,0.5,M,M,1.5,M,M,1.5,M,M,M,10,4.5,M,M
US1CODN0030,DENVER 8 SSW,DENVER,Colorado,5511,39.63,-105.05,T,T,T,T,T,0,0,0,0,0,0,T,T,0.5,0.5,T,T,4,2,0.5,2.5,1,T,0,13,7,3.5,M
US1COFM0011,CANON CITY 1.0 NNE,FREMONT,Colorado,5504,38.48,-105.24,M,M,M,M,M,M,M,M,M,M,M,0.5,M,M,M,M,M,3.2,M,M,M,M,M,M,1.8,M,M,M
USC00052934,FLATIRON RESERVOIR,LARIMER,Colorado,5503,40.37,-105.24,0,M,M,0,M,M,M,M,0,0,0,M,M,M,M,2,2,6,4,M,M,1,0,0,4,4,M,M
US1COJF0471,ARVADA 1.8 NE,JEFFERSON,Colorado,5502,39.84,-105.08,M,M,M,M,M,M,M,M,M,M,M,M,M,1,M,M,M,M,M,M,M,M,M,M,M,M,M,M
US1COBO0437,BOULDER 2.1 W,BOULDER,Colorado,5501,40.03,-105.29,M,M,M,M,M,M,M,M,M,M,M,0.3,0.7,2,2,1,M,8.6,M,M,1,M,M,M,7.5,5.1,M,M
US1COAR0043,DENVER 9.4 S,ARAPAHOE,Colorado,5499,39.6,-104.98,0,M,M,M,M,M,M,0,M,M,M,T,T,0.6,0,M,M,2.3,M,M,2.1,T,M,M,14.2,4.5,M,M
US1COFM0071,CANON CITY 0.7 NE,FREMONT,Colorado,5485,38.47,-105.23,M,M,M,M,M,M,M,M,M,M,M,0.5,T,1,1,M,M,M,M,M,M,M,M,M,1,M,M,M
USC00050848,BOULDER,BOULDER,Colorado,5483,39.99,-105.27,0,0,0,0,0,0,0,0,0,0,0,1,1,2,2,1,1,5,2,1,1,0,0,0,6,4,3,2
US1COBO0465,BOULDER 1.8 NW,BOULDER,Colorado,5483,40.05,-105.28,0,0,0,0,0,0,0,T,0,0,0,0.6,0.7,2,1.9,1.3,0.6,9.6,4.3,1.4,1.5,1.1,0,M,7,2.9,1.6,1.1
US1COLR1043,BELLVUE 2.1 S,LARIMER,Colorado,5482,40.6,-105.18,M,M,M,M,M,M,M,M,M,M,M,M,M,M,3,M,M,M,M,M,M,M,M,M,M,M,M,M
US1COJF0071,DENVER 10.3 NW,JEFFERSON,Colorado,5478,39.86,-105.1,M,M,M,M,M,M,M,M,M,M,M,M,M,1.2,M,M,M,M,M,M,M,M,M,M,M,M,M,M
US1COBO0464,BOULDER 3.2 S,BOULDER,Colorado,5475,39.98,-105.25,M,M,M,M,M,M,M,M,M,M,M,M,1,2,2,M,M,M,M,M,M,M,M,M,M,M,M,M
US1COBO0481,BOULDER 3.6 SSE,BOULDER,Colorado,5475,39.98,-105.24,M,M,M,M,M,M,M,T,M,T,M,M,M,M,M,M,M,M,M,M,M,M,M,M,M,M,M,M
US1COBO0514,BOULDER 2.4 SW,BOULDER,Colorado,5474,40.0,-105.28,M,M,M,M,M,M,M,M,M,M,M,M,M,2.8,M,M,M,M,M,M,M,M,M,M,M,M,M,M
US1COBO0014,BOULDER 1.6 S,BOULDER,Colorado,5471,39.99,-105.26,0,0,0,0,0,M,0,T,T,T,T,0.9,1.5,2,2,M,1,7,6,M,1,1,M,M,8,6,4,3
USC00057033,RIFLE 3ENE,GARFIELD,Colorado,5468,39.56,-107.73,T,T,T,T,T,2.5,T,0,0,T,0,0,0,T,T,4.5,4,3,2.5,2,T,T,T,0,T,0,1,1
US1COAR0290,LITTLETON 1.5 NE,ARAPAHOE,Colorado,5461,39.61,-105.0,M,M,M,M,M,M,0,0,M,M,M,M,M,0.4,M,0,0,2.5,0,0,1.7,0,0,0,14,6.5,3,2.5
US1COSM0008,SLICK ROCK 1.3 N,SAN MIGUEL,Colorado,5459,38.06,-108.91,M,M,M,M,M,M,M,M,M,M,0,M,M,M,M,M,M,M,M,M,M,M,M,M,M,M,0,M
US1COBO0002,BROOMFIELD 1.2 NE,BOULDER,Colorado,5458,39.94,-105.08,0,0,0,0,0,0,0,T,T,T,T,0.5,0.5,1.5,1,1,T,2.5,2,T,1.5,T,T,0,9,6.5,4.5,3
US1COBO0456,BOULDER 2.2 SSW,BOULDER,Colorado,5456,40.0,-105.27,M,M,M,M,M,M,M,M,0,M,M,M,M,M,M,M,M,M,M,M,M,M,M,M,M,M,M,M
US1CODN0074,DENVER 6.0 W,DENVER,Colorado,5452,39.76,-105.05,M,M,M,M,M,M,M,M,M,M,M,M,M,M,M,M,M,4,M,M,M,M,M,M,10.5,M,M,M
US1COAD0225,WESTMINSTER 2.3 SSE,ADAMS,Colorado,5450,39.85,-105.04,M,M,M,M,M,M,M,M,M,M,M,M,T,1.2,1.2,M,M,3,2,M,2.5,M,M,M,11,8.5,5,M
USC00056320,PARADOX 2N,MONTROSE,Colorado,5445,38.39,-108.95,2,1,T,0,0,0,0,0,0,0,0,0,0,T,T,T,1,0,0,0,0,0,0,0,0,0,0,0
US1CODN0141,DENVER 5.3 SW,DENVER,Colorado,5444,39.68,-105.04,M,M,M,M,M,M,M,M,M,M,T,T,T,M,T,M,M,3.2,M,M,2.2,M,M,M,11,M,M,M
US1COBR0049,BROOMFIELD 1.3 WSW,BROOMFIELD,Colorado,5443,39.93,-105.08,M,M,M,M,M,M,M,M,M,M,M,M,0.3,1.5,M,T,M,4.6,T,M,2.5,M,M,M,8.3,5.5,4,M
US1CODN0122,DENVER 3.5 SE,DENVER,Colorado,5441,39.69,-104.92,M,M,M,M,M,M,M,M,M,M,M,M,M,M,M,M,M,M,M,M,M,M,M,M,13,M,M,M
US1COBO0282,BOULDER 4.4 S,BOULDER,Colorado,5439,39.96,-105.24,M,M,M,M,M,M,M,M,M,M,M,0.5,0.5,1,M,M,M,6,M,M,M,M,M,M,7,2,M,M
US1COBO0380,BOULDER 2.0 W,BOULDER,Colorado,5438,40.02,-105.29,M,M,M,M,M,M,0,M,M,M,M,M,M,2,M,M,M,M,M,M,3,M,M,M,M,M,M,1.5
US1CODN0177,DENVER 2.0 ESE,DENVER,Colorado,5438,39.72,-104.93,M,M,M,M,M,M,M,M,M,M,M,M,M,M,1.5,M,M,M,M,M,M,M,M,M,M,M,M,M
US1COJF0072,BROOMFIELD 2.3 SSW,JEFFERSON,Colorado,5435,39.88,-105.11,T,T,T,0,0,0,0,T,0,T,T,0.3,0.3,1,1,1,1,4,3,2.5,3.6,0.5,T,T,8,6.5,5.5,4
US1COJF0343,WHEAT RIDGE 0.9 WSW,JEFFERSON,Colorado,5435,39.77,-105.11,1,0.5,T,0,0,0,0,0,0,0,0,0.5,0.5,1,1,1,0.5,4,4,3.5,2,2,T,0,8.5,6,4.5,M
US1COLA0077,FOWLER 27.4 SSW,LAS ANIMAS,Colorado,5434,37.8,-104.3,M,M,M,M,3.4,2.1,M,M,M,M,M,1,0.5,1.7,1.7,1.7,0.5,M,2.5,M,M,M,M,M,M,M,M,M
US1COBO0491,BOULDER 1.8 W,BOULDER,Colorado,5425,40.03,-105.29,M,T,0,0,0,0,0,T,0,T,0,1.2,2,3.1,3.1,M,0.6,10.2,6.5,4,3,M,T,M,M,5,3.5,M
US1CODN0079,DENVER 5.6 W,DENVER,Colorado,5424,39.76,-105.04,M,M,M,M,M,M,M,M,M,M,M,M,M,M,M,M,M,3.5,M,M,1,M,M,M,11,7.5,M,M
US1COBO0490,BOULDER 1.5 WNW,BOULDER,Colorado,5413,40.04,-105.28,T,T,T,0,0,0,0,T,0,T,0,0.5,1,2,2,2,1,M,M,M,M,M,M,T,M,M,M,M
USW00003017,DENVER INTL AP,DENVER,Colorado,5413,39.83,-104.66,0,0,0,0,0,0,T,T,T,T,T,T,T,1,1,1,1,1,1,T,1,0,0,0,10,5,2,1
US1COAR0386,LITTLETON 0.1 ESE,ARAPAHOE,Colorado,5409,39.59,-105.01,0.5,0.5,0.5,0.5,0.5,0.5,0.5,0.5,0,0,0,0,0,0.3,0.5,0,0,2.9,2,2,1.5,1,0.5,0.5,15.5,15,2,2
USC00055984,NORTHGLENN,ADAMS,Colorado,5406,39.9,-105.01,M,M,M,M,M,M,M,M,0,M,M,0,M,1,1,M,M,2,0,M,2,M,M,0,9,3,1,0
US1COJF0511,WESTMINSTER 3.0 WSW,JEFFERSON,Colorado,5404,39.87,-105.11,M,M,M,M,M,M,M,M,M,M,M,M,0.2,0.7,M,M,M,3.2,M,M,M,M,M,M,M,M,M,M
US1COJF0217,DENVER 6.6 W,JEFFERSON,Colorado,5402,39.77,-105.06,M,M,M,M,M,M,M,M,M,M,M,M,M,M,M,M,M,M,2.7,M,M,M,M,M,M,6,4,3.8
US1COAD0153,WESTMINSTER 1.6 NE,ADAMS,Colorado,5402,39.9,-105.03,0,0,0,0,0,0,0,0,0,0,0,0.1,T,1,1.5,1,0,2.7,2,0.5,1.3,0,0,0,9.5,8,5.5,4.5
US1CODN0025,DENVER 2.1 ESE,DENVER,Colorado,5399,39.73,-104.95,T,0,0,0,0,0,M,M,M,0,0,T,T,1,1,0.5,T,2,M,M,1.5,1,T,0,14,9,5,3.5
US1CODN0016,DENVER 5.2 S,DENVER,Colorado,5399,39.67,-104.97,T,T,T,T,T,T,T,T,T,T,T,T,T,0.5,0.5,T,T,3,1.5,T,2,0.5,T,T,14,7,5.5,4.5
US1COBO0146,LYONS 0.3 NNE,BOULDER,Colorado,5398,40.23,-105.27,0,0,0,0,0,0,0,T,T,T,T,0.1,0.5,1.5,1.5,1.5,0.5,5,4,2.5,1,T,T,T,4,3,2,1
USC00058995,WHEAT RIDGE 2,JEFFERSON,Colorado,5397,39.77,-105.12,0,0,0,0,0,0,0,0,0,0,0,1,0,1,1,0,0,4,3,0,1,0,0,0,9,7,4,3
US1COBO0004,BOULDER 2.9 S,BOULDER,Colorado,5396,39.99,-105.26,0,0,0,0,0,M,0,T,T,T,T,0.5,1,2,2,M,1,7.5,6,M,1,1,M,M,8,6,4,3
US1CODN0112,DENVER 0.2 NNW (BOTANIC GARDENS),DENVER,Colorado,5396,39.73,-104.96,0,0,0,0,0,0,0,0,0,0,M,T,T,1,0.5,0.5,T,2,0.5,0,1,0.5,0,0,11,3.5,M,M
US1COBO0521,BOULDER 1.4 W,BOULDER,Colorado,5391,40.03,-105.28,M,M,M,M,M,M,M,T,M,M,M,0.5,1,1.6,1.5,1.3,0.5,10.5,5,2.5,1.5,1,0,0,7.5,4,2.5,2
US1COBO0298,BOULDER 2.5 S,BOULDER,Colorado,5390,39.99,-105.26,M,M,M,M,M,M,M,M,M,M,M,0.5,M,M,M,M,M,7,M,M,0.3,M,M,M,7.5,M,M,M
US1CODN0049,DENVER 3.2 SSE,DENVER,Colorado,5390,39.72,-104.92,M,M,M,M,M,M,M,M,M,M,M,M,T,1.2,M,M,M,1.5,1,M,1.5,M,M,M,12.5,6,3,1
US1COAD0246,WESTMINSTER 2.4 S,ADAMS,Colorado,5389,39.85,-105.05,M,M,M,M,M,M,M,M,M,M,M,0,0.5,M,M,M,2.5,M,M,M,M,M,M,12,13,M,M,M
USC00051294,CANON CITY,FREMONT,Colorado,5377,38.46,-105.23,0,0,0,0,0,0,0,0,0,0,0,1,1,1,1,1,T,3,2,T,0,0,0,0,2,T,0,0
US1COBO0072,BOULDER 1.3 NW,BOULDER,Colorado,5376,40.02,-105.27,0,0,0,0,M,M,M,T,T,T,0,0.5,0.5,2,1.5,1,0.5,9,4.5,1,0.5,T,T,0,6.5,4,1,0.5
US1COBO0351,LAFAYETTE 2.3 WNW,BOULDER,Colorado,5375,40.0,-105.14,M,M,M,M,M,M,M,M,M,M,M,0.6,M,2,M,M,M,M,M,M,M,M,M,M,M,M,M,M
US1COJF0499,WHEAT RIDGE 1.2 ENE,JEFFERSON,Colorado,5374,39.78,-105.08,0,0,0,0,0,0,0,0,0,T,0,T,T,1,1,1,0,4,1,1,2,0,0,0,11,6,4,3
US1COBO0496,BOULDER 1.5 NNW,BOULDER,Colorado,5371,40.05,-105.26,M,M,M,M,M,M,M,M,M,M,M,0.5,M,M,M,M,M,M,M,M,M,M,M,M,M,M,M,M
US1CODN0175,DENVER 0.4 E,DENVER,Colorado,5371,39.73,-104.95,M,M,M,M,M,M,M,M,M,M,M,T,T,1,1,T,T,2,T,T,1.5,T,T,M,12,6.5,5.5,4
US1COJF0512,WHEAT RIDGE 1.4 ENE,JEFFERSON,Colorado,5371,39.78,-105.08,M,M,M,M,M,M,M,M,M,M,M,T,M,1,M,M,M,3.7,M,M,1,M,M,M,7.2,M,M,M
US1COBO0030,BOULDER 1.9 SE,BOULDER,Colorado,5367,39.99,-105.24,T,0,0,0,0,0,0,T,0,0,T,0.6,0.9,1.8,1.5,1.5,1,8.2,5,2,1,T,T,T,8.3,5.5,3.5,2.5
US1COBO0468,LOUISVILLE 1.6 NNE,BOULDER,Colorado,5366,39.99,-105.13,M,M,M,M,M,M,M,M,M,M,M,M,M,M,M,M,M,M,M,M,1.4,M,M,M,M,M,M,M
USC00052212,DENVER INTL AIRPORT 2SW,DENVER,Colorado,5359,39.83,-104.69,M,M,M,M,M,M,0,0,0,0,0,M,M,M,M,M,M,M,M,M,M,M,M,M,M,M,M,M
US1CODN0264,DENVER 2.1 ENE,DENVER,Colorado,5358,39.74,-104.92,T,T,0,0,0,0,0,0,0,0,0,T,T,1,0.5,T,T,1.5,T,T,2,T,T,T,13,7,3,2.5
US1COAD0207,THORNTON 3.9 NNE,ADAMS,Colorado,5347,39.95,-104.94,M,M,M,M,M,M,M,M,M,M,M,M,M,M,M,M,M,M,M,M,M,M,M,M,11,M,M,M
US1COAD0127,AURORA 4.2 NNW,ADAMS,Colorado,5341,39.75,-104.85,0,0,0,0,0,0,0,0,0,0,T,T,T,1,2,T,0,1.5,T,0,2.5,1,0,0,10.5,4.5,3,2
US1COFM0019,CANON CITY 1.3 ENE,FREMONT,Colorado,5341,38.45,-105.22,M,M,M,M,M,M,M,M,M,M,M,M,M,M,0.5,M,M,M,M,M,M,M,M,M,M,M,M,M
US1COFM0034,CANON CITY 2.5 ENE,FREMONT,Colorado,5337,38.45,-105.2,M,M,M,M,M,M,M,M,M,M,M,0.5,T,1,1,0.5,T,2.5,1,M,M,M,M,M,1.7,M,M,M
US1COLR0140,WEL 4.8 NW,LARIMER,Colorado,5337,40.74,-105.08,M,M,M,M,M,M,M,M,M,M,M,M,M,2.5,M,M,M,M,M,M,M,M,M,M,M,M,M,M
US1CODN0231,DENVER 2.6 SSW,DENVER,Colorado,5329,39.69,-104.97,M,M,M,T,M,M,M,M,M,M,M,M,M,0.5,0.5,T,T,2,M,M,1.5,M,M,M,14,M,M,M
US1COBO0476,BOULDER 2.9 ESE,BOULDER,Colorado,5326,40.01,-105.2,M,M,M,M,M,M,M,M,M,M,M,M,M,M,M,M,M,M,M,M,M,M,M,M,6.2,M,M,M
US1COBO0067,BOULDER 4.7 E,BOULDER,Colorado,5324,40.0,-105.18,T,T,0,0,0,0,0,0,0,0,0,0.5,0.5,1.5,1.5,1.5,1,6,3.5,2,2.5,2,0.5,T,10,7.5,3.5,3
US1COFM0001,PENROSE 1.2 ESE,FREMONT,Colorado,5324,38.42,-105.0,M,M,M,M,M,M,M,M,M,M,M,M,T,M,0.8,M,T,M,T,0,M,M,M,M,M,M,M,M
US1COMT0060,OLATHE 5.2 NW,MONTROSE,Colorado,5322,38.65,-108.06,M,M,M,M,M,M,M,M,M,M,M,M,M,M,M,0.2,4,2,M,M,M,M,M,M,M,M,M,M
US1COBO0019,BOULDER 4.6 E,BOULDER,Colorado,5314,40.0,-105.17,M,M,M,M,M,M,M,M,M,M,M,M,M,2,M,M,M,M,M,M,M,M,M,M,M,M,M,M
US1COLR0918,WELLINGTON 3.7 WNW,LARIMER,Colorado,5313,40.72,-105.07,M,M,M,M,M,M,M,M,M,0,0,0,0.4,2.3,M,2,2,5.5,3,3,2,2,M,M,1.4,1,M,0
US1CODN0280,DENVER 1.1 NE,DENVER,Colorado,5312,39.74,-104.95,0,0,0,0,0,0,0,0,0,0,0,T,T,1.1,1,0.5,T,1.9,0.5,T,1.2,T,0,M,12.8,9,7.5,6
US1COAR0292,ENGLEWOOD 1.4 N,ARAPAHOE,Colorado,5304,39.67,-104.99,0,0,0,0,0,0,0,0,0,0,T,T,T,0.5,0.5,0.5,T,3,2,T,1.5,0.5,T,0,15,11,6.5,4.5
US1COBO0222,LAFAYETTE 2.5 NW,BOULDER,Colorado,5286,40.02,-105.14,M,M,M,M,M,M,M,M,M,T,T,0.5,0.5,1.5,1,1,T,5.5,3.5,T,0.5,T,M,M,7.5,5,2,1
US1COBO0008,LAFAYETTE 0.4 WSW,BOULDER,Colorado,5284,39.99,-105.11,T,T,0,0,0,0,0,T,0,T,0,0.5,T,1,1,1,T,4.5,2.5,0.5,1,T,T,T,8.5,5,2.5,0.5
USW00023062,DENVER-STAPLETON,DENVER,Colorado,5283,39.77,-104.87,0,0,0,0,0,0,0,0,0,0,T,0,T,1,1,1,0,2,1,0,2,1,0,0,11,5,3,2
US1COBO0266,LAFAYETTE 0.8 WSW,BOULDER,Colorado,5279,39.99,-105.11,T,T,T,T,T,T,0,T,T,T,T,0.4,0.5,1.5,1.5,1.5,M,4.3,3,2,2,1,0.5,T,7,5,3,2
USC00056832,RANGELY 1E,RIO BLANCO,Colorado,5276,40.09,-108.77,2,2,2,2,0,2,M,2,2,1,1,1,1,2,2,2,2,1,0,1,1,1,1,1,1,1,M,M
US1COBO0457,BOULDER 0.7 ENE,BOULDER,Colorado,5274,40.03,-105.24,M,M,M,M,M,M,M,T,M,T,T,T,M,1.5,0.5,0.5,M,8.2,1.7,M,T,M,M,M,7.5,4,0.5,0.5
US1COBO0220,BOULDER 4.7 ENE,BOULDER,Colorado,5271,40.06,-105.17,T,M,M,0,0,M,M,T,T,T,T,M,0.3,2.5,1.5,1,T,6.5,2,0.5,0.5,T,T,M,9.5,5,2.5,1
US1COBO0120,BOULDER 3.0 E,BOULDER,Colorado,5265,40.01,-105.21,M,M,M,M,M,M,M,M,M,M,M,M,M,1,M,M,M,5,M,M,M,M,M,M,6,M,M,M
US1COBO0290,LAFAYETTE 2.3 NW,BOULDER,Colorado,5263,40.02,-105.13,M,M,M,M,M,M,M,M,M,M,M,M,0.4,1.7,1.5,1.3,M,5.2,0.5,M,0.3,M,M,M,6.9,3.8,2,M
US1COLR0142,WEL 1.8 NE,LARIMER,Colorado,5261,40.73,-104.97,M,M,M,M,M,M,M,M,M,M,M,M,M,M,M,M,M,5,M,M,M,M,M,M,M,M,M,0
USC00054546,KIM 10SSE,LAS ANIMAS,Colorado,5256,37.12,-103.3,0,0,0,T,0,0,0,0,0,0,0,T,T,1,1,1,T,1,1,T,0,0,0,0,0,0,0,0
US1CODN0269,DENVER 6.7 NE,DENVER,Colorado,5248,39.8,-104.88,M,M,M,M,M,M,M,M,M,M,M,0.1,0.1,1.3,M,M,M,1.7,M,M,M,M,M,M,11,3,M,M
US1COBO0018,LAFAYETTE 0.2 S,BOULDER,Colorado,5248,39.99,-105.1,M,M,M,M,M,M,M,M,M,T,T,0.6,T,1.4,M,M,M,4.3,M,M,1,M,M,M,8,M,M,M
US1COLR0252,BELLVUE 1 NW,LARIMER,Colorado,5245,40.63,-105.18,M,M,M,M,M,M,M,M,M,M,M,M,M,M,M,M,M,M,M,M,M,T,T,T,4,M,M,M
US1COAD0100,THORNTON 2.1 N,ADAMS,Colorado,5243,39.92,-104.96,0,0,0,0,0,0,0,0,0,0,0,0.3,0.1,1.1,1,1,0.5,2,1.5,T,0.5,T,0,0,11.5,6.5,4.5,3.5
US1COBR0032,BROOMFIELD 3.2 NNE,BROOMFIELD,Colorado,5230,39.99,-105.05,T,0,0,0,0,0,0,T,T,T,T,0.5,T,1.5,1.5,1,T,3,1.5,T,0.5,T,0,0,7,5,2.5,1.5
USC00058839,WATERDALE,LARIMER,Colorado,5229,40.43,-105.21,0,0,0,0,0,0,M,0,M,0,0,0,0,2,2,0,1,6,4,3,1,0,0,0,M,2,1,0
USC00052223,DENVER WATER DEPARTMENT,DENVER,Colorado,5227,39.73,-105.01,0,0,0,0,0,0,0,0,0,T,0,T,0,1,1,0,0,2,1,0,1,0,0,0,8,2,2,1
US1COLR0284,FCL 3.0 W,LARIMER,Colorado,5219,40.59,-105.15,M,M,M,M,M,M,M,M,T,T,T,0.3,0.5,2.5,2.5,M,1,6,M,M,0.5,M,M,M,4,M,M,M
US1COLR0952,WELLINGTON 0.4 NW,LARIMER,Colorado,5219,40.71,-105.01,M,M,M,M,M,M,M,M,M,M,M,M,0.5,2.5,2,2,2.5,5.5,4,3,1.5,1,T,M,M,T,M,M
US1COWE0409,NUNN 6.5 NE,WELD,Colorado,5217,40.77,-104.69,0,0,0,0,0,0,0,0,0,0,0,T,T,1,1,1,1.5,1.5,1.5,1.5,0.5,T,T,0,0.5,T,0,0
US1COGF0090,BATTLEMENT MESA 0.9 WNW,GARFIELD,Colorado,5212,39.45,-108.04,3.5,3,2.5,1.5,1,1,1,0.5,M,0.5,M,0,M,M,M,M,M,M,M,M,M,M,M,M,M,M,M,M
US1COBO0538,BOULDER 3.1 NE,BOULDER,Colorado,5204,40.06,-105.21,0,0,0,0,0,0,0,0,0,T,T,0.4,0.4,1.5,1.2,1,0,6.7,3.5,1.3,0.1,0,M,0,7.5,4,1.3,1.4
US1COLR1116,FORT COLLINS 8.6 N,LARIMER,Colorado,5204,40.68,-105.05,M,M,M,M,M,M,M,M,M,M,M,M,M,M,M,2.2,M,M,M,M,M,M,M,M,M,M,M,M
US1COBO0469,NIWOT 2.2 SW,BOULDER,Colorado,5203,40.07,-105.19,M,M,M,M,M,M,M,M,M,M,M,M,0.3,1.3,M,M,M,M,2.5,M,M,M,M,M,M,M,M,M
US1COWE0345,NUNN 1.2 ENE,WELD,Colorado,5201,40.71,-104.76,0,0,0,0,0,0,0,0,0,0,M,0,1,3.5,3,2.5,3,3.5,3,1,0.5,0,0,M,1,0,0,0
US1COLR1008,WELLINGTON 0.8 SW,LARIMER,Colorado,5194,40.7,-105.01,M,M,M,M,M,M,M,M,M,M,M,M,M,2.2,2.2,2,2,5.5,3.5,2.5,1.5,T,T,T,M,T,T,T
USC00054538,KIM 15 NNE,LAS ANIMAS,Colorado,5189,37.45,-103.32,0,0,0,1,0,0,0,0,0,0,0,T,0,2,2,2,1,1,2,1,1,0,0,0,0,0,0,0
US1COBO0076,NIWOT 1.8 SSW,BOULDER,Colorado,5189,40.08,-105.18,T,T,0,0,0,0,0,T,T,T,T,T,T,1,1,1,0.5,6.5,5,3,1,0.5,T,T,9.5,7.5,4.5,3
US1COLR0922,BERTHOUD 4.4 WSW,LARIMER,Colorado,5180,40.28,-105.16,0,0,0,0,0,0,0,0,T,0,0,T,T,1.5,1.5,1.5,1,4.5,2.5,T,0,0,0,0,4.5,3,2,0.5
USC00055934,NEW RAYMER 21 N,WELD,Colorado,5179,40.93,-103.87,0,0,0,0,0,1,0,0,0,M,M,M,M,M,M,M,M,M,M,M,M,M,M,M,M,M,M,M
US1COLR0035,BERTHOUD 5.2 SW,LARIMER,Colorado,5170,40.26,-105.16,M,M,M,M,M,M,M,M,M,M,M,M,M,M,M,M,M,M,M,M,M,M,M,0,M,M,M,M
US1COBO0099,HYGIENE .79 N,BOULDER,Colorado,5166,40.2,-105.18,M,T,0,0,0,0,0,M,T,0,0,0.5,T,1.5,1,1,1,5.5,3,1.5,0.5,T,T,0,5.5,4.5,3,2
US1COBO0442,BOULDER 4.5 E,BOULDER,Colorado,5159,40.03,-105.17,M,M,M,M,M,M,M,M,M,M,M,M,T,M,M,M,M,M,M,M,M,M,M,M,M,4,M,M
US1COLR1109,LOVELAND 2.8 WNW,LARIMER,Colorado,5158,40.43,-105.12,T,T,0,0,0,0,0,0,T,T,T,0.5,0.5,2,2,1.5,1.5,6,4.5,3.5,2,1.5,T,T,3,2,1.5,0.5
US1COLR1136,BERTHOUD 3.0 NNW,LARIMER,Colorado,5157,40.35,-105.1,M,M,M,M,M,M,M,M,T,M,M,M,M,M,M,M,1.2,M,M,M,M,M,M,M,M,M,M,M
US1COLR0761,LAPORTE 1.4 NW,LARIMER,Colorado,5143,40.63,-105.15,M,M,M,M,M,M,M,M,M,M,M,0.2,0.5,2,2,1.8,1.5,6.9,4.3,2,1.5,1,0.5,M,3.5,2,1.5,1
US1COLR0391,FCL 3.0 SW,LARIMER,Colorado,5140,40.54,-105.12,T,0,0,0,0,0,0,0,0,0,0,T,0.5,3.5,3,2,1.5,6,4,3,2,1,0.5,T,4,2.5,1,0.5
US1COLR0075,FORT COLLINS 2.8 WSW,LARIMER,Colorado,5140,40.55,-105.13,T,T,0,0,0,0,T,0,T,T,T,0.3,1,2.3,2.5,2,1.5,6,5,2,2,1,T,T,3.9,2.5,1,0.5
US1COLR0464,LOV 5.0 S,LARIMER,Colorado,5140,40.34,-105.09,M,M,M,M,M,M,M,M,M,M,M,M,M,M,M,M,M,M,M,M,M,M,M,M,3.4,M,M,M
US1COAD0241,THORNTON 7.3 N,ADAMS,Colorado,5139,40.0,-104.97,M,M,M,M,M,M,M,M,M,M,M,M,M,M,1,M,M,M,M,M,M,M,M,M,M,M,M,M
US1COLR1200,BERTHOUD 2.5 N,LARIMER,Colorado,5138,40.34,-105.09,M,M,M,M,M,M,M,M,M,M,M,M,M,M,M,M,M,M,M,M,T,M,M,M,M,M,M,M
US1COLR1239,BERTHOUD 2.3 N,LARIMER,Colorado,5132,40.34,-105.09,M,M,M,M,M,M,M,T,T,0,T,0.3,T,1.5,1.5,1,T,3,1,T,M,0,0,M,4,1,T,T
US1COWE0392,ERIE 0.5 SE,WELD,Colorado,5131,40.02,-105.04,M,M,M,M,M,M,M,M,M,M,M,M,M,M,1,1,0.2,M,M,M,M,M,M,M,M,4,M,M
US1COBO0285,ERIE 1.7 WNW,BOULDER,Colorado,5130,40.04,-105.07,M,M,M,M,M,M,M,T,T,M,M,0.5,T,1.5,1.5,1.5,0.5,4.5,3,0.5,T,M,M,M,7,3.5,2.5,1.5
US1COWE0250,FCL 7.9 ENE,WELD,Colorado,5128,40.59,-104.93,0,0,0,0,0,0,0,0,0,0,0,0,0,1,1,1,1.5,2.5,2,1.5,0.5,0,0,0,1,0,0,0
US1COPU0133,PUEBLO WEST 2.2 NNE,PUEBLO,Colorado,5125,38.38,-104.71,M,M,M,M,M,M,M,M,M,M,M,1.5,M,M,M,M,M,M,M,M,M,M,M,M,3.5,M,M,M
US1COLR0509,LOV 4.0 W,LARIMER,Colorado,5124,40.39,-105.16,M,M,M,M,M,M,M,T,T,T,T,0.5,0.4,3,T,M,T,5,T,M,T,M,M,M,5,T,M,T
US1COPU0065,PUEBLO WEST 3.4 SSW,PUEBLO,Colorado,5120,38.3,-104.74,M,M,M,M,M,M,M,0,0,0,T,2,1,3,2,2,1.5,2.5,1,T,M,M,M,M,4,1,T,0
US1COLR0259,FCL 2.5 W,LARIMER,Colorado,5117,40.59,-105.13,0,M,M,M,M,M,M,0,T,T,T,0.5,0.5,2.5,2.5,2.5,1.5,5.5,4.5,3,1.5,0.5,T,T,4,2.5,1,0.5
US1COLR1009,FORT COLLINS 2.8 W,LARIMER,Colorado,5116,40.56,-105.12,M,M,M,M,M,M,M,M,M,M,M,M,1,2.5,2.5,2,1.5,6,2.5,1.5,0.5,T,T,M,4,2.5,1,T
US1COLR0412,FORT COLLINS 2.9 NW,LARIMER,Colorado,5111,40.6,-105.13,M,M,M,M,M,M,M,M,M,M,M,M,0.5,2.5,M,M,M,6,M,M,M,M,M,M,M,M,M,M
US1COLR0458,LOV 3.0 SW,LARIMER,Colorado,5111,40.37,-105.14,M,M,M,M,M,M,M,M,M,M,M,M,M,M,2,M,M,M,M,M,M,M,M,M,2,M,M,M
US1COAD0123,BRIGHTON 4.0 WNW,ADAMS,Colorado,5110,39.97,-104.87,M,M,M,M,M,M,M,M,M,T,T,T,T,1.5,1.5,1.5,0.5,2,1,M,T,M,M,M,8.5,2.5,0.5,0.5
US1COWE0511,ERIE 1.5 NNE,WELD,Colorado,5110,40.05,-105.03,M,M,M,M,M,M,M,M,T,0,0,0.2,0.1,1.1,1,0.5,T,2.6,M,T,0.2,T,0,M,7.2,M,M,M
US1COAD0022,THORNTON 2.3 SSE,ADAMS,Colorado,5100,39.86,-104.94,M,M,M,M,M,M,M,0,0,0,0,T,T,1,0.5,0.5,T,1.7,T,0,1,0,M,M,13.5,3.5,2,2
US1COPU0094,PUEBLO WEST 3.8 WSW,PUEBLO,Colorado,5099,38.33,-104.79,0,0,0,0,0,0,0,0,0,0,0,1,1,1.5,2,1.5,0,1.5,1,0,0,0,0,0,2,0,0,0
US1COLR0676,LOVELAND 2.4 NW,LARIMER,Colorado,5097,40.44,-105.11,M,M,M,M,M,M,M,M,M,M,M,M,M,M,1.5,M,M,M,M,M,M,M,M,M,M,M,M,M
US1COLR0854,LOVELAND 2.3 NW,LARIMER,Colorado,5090,40.44,-105.1,M,M,M,M,M,M,M,M,M,M,T,0.4,M,1.5,2.5,2,1.5,4,3,2,1.5,1,0.5,T,3.1,2,0.5,T
US1COLR0472,LOV 3.4 S,LARIMER,Colorado,5084,40.37,-105.1,M,M,M,M,M,M,M,M,T,T,T,0.2,0.4,1.5,1.5,1.5,1,3.5,3,2,1,0.5,T,M,3,2,1,0.5
US1COLR0500,LOV 3.8 S,LARIMER,Colorado,5084,40.37,-105.1,M,M,M,M,M,M,M,M,M,T,M,0.3,0.5,2,M,M,M,4.5,M,M,M,M,M,M,3.2,M,M,M
US1COWE0209,ERIE 1.6 NE,WELD,Colorado,5081,40.07,-105.03,T,T,T,0,0,0,0,0,M,T,T,0.3,T,1.8,M,M,M,3.7,1.2,M,0.3,T,T,T,6.4,3.5,1.4,M
USC00055236,LOVELAND 2N,LARIMER,Colorado,5079,40.44,-105.08,0,0,0,0,0,0,0,0,T,0,T,T,T,2,2,1.5,1,5,5,3,1,T,T,T,3,2,T,T
US1COLR0762,FORT COLLINS 4.6 N,LARIMER,Colorado,5078,40.62,-105.06,T,M,M,M,M,M,M,0,M,M,T,T,0.2,2,2,1.8,1.5,3.5,3,2.5,1.5,1,T,T,2.5,2,1,1
US1COLR1242,LAPORTE 1.5 SSE,LARIMER,Colorado,5078,40.6,-105.12,M,M,M,M,M,M,M,M,M,M,M,M,M,M,M,M,M,5.8,M,M,M,M,M,M,M,M,M,M
US1COLR0311,FCL 2.3 NW,LARIMER,Colorado,5075,40.6,-105.12,0,0,0,0,0,0,0,0,T,0,T,0.2,0.4,2.3,2,2,1.5,5.5,4,2.5,1,0.5,T,0,3.3,2,1,T
US1COPU0055,PUEBLO WEST 6.0 W,PUEBLO,Colorado,5075,38.33,-104.83,0,0,0,0,0,0,0,0,0,0,0,0.5,0.5,2,1.5,0.5,0,2,1,0,0,0,0,0,2,0,0,0
USC00054444,KARVAL,LINCOLN,Colorado,5074,38.74,-103.54,0,0,0,M,M,M,M,M,M,M,0,0,0,3,3,2,2,2,2,1,0,0,0,0,2,0,0,0
US1COLR1020,FORT COLLINS 4.9 N,LARIMER,Colorado,5072,40.63,-105.06,0,0,0,0,0,0,0,0,0,0,T,0,0,2,2,2,2,4.5,4,3,1.5,1,0.5,0,2.5,0.5,0.5,0
US1COLR0320,FCL 1.7 SW,LARIMER,Colorado,5071,40.56,-105.11,0,0,0,0,0,0,0,0,0,0,0,T,0.5,2,2,1.5,1.5,6,5,3,2,1,T,0,3.5,2.5,1,T
US1COLR0372,FCL 2.1 S,LARIMER,Colorado,5071,40.55,-105.09,M,M,M,M,M,M,M,M,M,M,M,M,M,M,M,M,M,7,M,M,M,M,M,M,M,M,M,M
US1COBO0084,LONGMONT 2.6 NW,BOULDER,Colorado,5068,40.2,-105.13,M,M,M,M,M,M,M,T,T,T,T,M,M,M,M,M,M,6.6,T,T,T,M,M,M,6.4,M,M,M
US1COLR0273,FCL 2.2 NW,LARIMER,Colorado,5066,40.6,-105.12,T,0,0,0,0,0,0,0,0,0,T,0.3,0.3,2,2,2,1.5,6,4.5,2.5,1.5,T,0,0,3.5,2,1,T
US1COLR1237,FORT COLLINS 4.6 S,LARIMER,Colorado,5066,40.49,-105.08,M,M,M,0,M,M,M,T,T,0,T,0.2,0.2,2,M,M,M,5.5,2.5,M,M,M,M,M,3,M,M,M
US1COBO0331,LONGMONT 3.8 WSW,BOULDER,Colorado,5066,40.14,-105.17,0,M,M,M,M,M,M,0,M,M,M,M,M,M,1.5,M,M,M,M,M,M,M,M,M,M,M,M,M
US1COAD0087,BRIGHTON 1.7 ESE,ADAMS,Colorado,5065,39.98,-104.79,M,M,M,M,M,M,M,M,M,M,M,M,M,M,M,M,M,M,M,M,M,M,M,M,8.1,M,M,M
US1COBO0149,LONGMONT 1.7 NNE,BOULDER,Colorado,5061,40.19,-105.09,M,M,M,M,M,M,M,M,M,M,M,0.5,M,2.5,M,M,M,4,M,M,T,M,M,M,6.5,M,M,M
US1COBO0507,LONGMONT 3.3 SW,BOULDER,Colorado,5061,40.14,-105.16,0,0,0,0,0,0,0,0,0,0,0,0.4,0.5,M,M,M,M,6,M,M,0,0,0,0,7.5,M,4,M
US1COBO0352,LONGMONT 1.8 ENE,BOULDER,Colorado,5059,40.18,-105.08,0,0,0,0,0,M,0,T,T,T,T,T,T,1.7,1.5,0,T,3.6,1.5,0.5,T,0,0,0,6.8,4.5,3.5,2
US1COLR1196,FORT COLLINS 2.5 NW,LARIMER,Colorado,5057,40.58,-105.1,M,M,M,M,M,M,M,M,M,M,M,0.2,M,M,M,M,M,M,M,M,M,M,0,M,3.4,M,M,M
US1COBO0143,LONGMONT 2.1 N,BOULDER,Colorado,5048,40.2,-105.11,0,0,0,0,0,0,0,0,T,T,T,T,T,1,1.5,1.5,T,5,3,T,T,0,0,0,6,5,2,0.5
US1COLR0797,FORT COLLINS 5.4 N,LARIMER,Colorado,5042,40.64,-105.08,M,M,M,M,M,M,M,M,M,M,M,M,0.2,2,1.9,M,2.3,5.4,4.2,M,M,M,M,M,2.6,M,M,M
US1COLN0057,HUGO 0.3 SSW,LINCOLN,Colorado,5039,39.13,-103.47,T,T,M,T,M,M,M,T,M,M,T,0.5,0.5,3,3.5,3,2,T,T,T,M,M,M,M,3,T,M,M
US1COBO0531,LONGMONT 0.4 SW,BOULDER,Colorado,5038,40.17,-105.12,M,M,M,M,M,M,M,M,M,M,M,M,M,1.5,M,M,M,M,M,M,M,M,M,M,M,M,M,M
US1COWE0187,HUDSON 4.8 WSW,WELD,Colorado,5035,40.04,-104.73,0,0,0,0,0,0,0,0,0,T,T,0.2,T,1,1,1,0.5,M,M,0,0,0,0,0,5.5,4,1,T
US1COBO0435,LONGMONT 3.0 SW,BOULDER,Colorado,5035,40.14,-105.15,0,0,0,0,0,0,0,0,T,0,T,0.1,T,1.5,1,0.9,T,5,2,T,T,0,0,0,8,5.5,2.5,1.5
US1COLR1235,CAMPION 1.8 NNE,LARIMER,Colorado,5034,40.37,-105.08,M,M,M,M,M,M,M,0,M,M,M,M,M,M,M,M,M,M,M,M,M,M,M,M,M,M,M,M
US1COLR0636,FORT COLLINS 2.8 NE,LARIMER,Colorado,5032,40.61,-105.04,0,0,0,0,0,0,0,M,M,M,M,M,M,2.3,2,1.5,1.5,3.7,1.5,0.5,0,0,0,0,2.3,M,0,0
US1COLR0036,TIMNATH 4.1 NNE,LARIMER,Colorado,5032,40.59,-104.96,0,0,0,0,0,0,0,0,0,0,0.1,0.2,0.2,1.8,1.5,1,1,2,1,0.5,T,T,T,0,1.2,T,T,T
US1COLR0307,FCL 3.2 NE,LARIMER,Colorado,5029,40.62,-105.05,M,M,0,M,M,M,M,M,M,M,M,M,M,M,M,M,M,M,M,M,M,M,M,M,M,M,M,M
USC00052196,DELTA 3E,DELTA,Colorado,5026,38.75,-108.03,M,M,M,M,M,M,M,M,M,M,M,M,M,M,M,M,M,M,M,M,M,M,M,M,M,M,0,0
US1COLR0769,FORT COLLINS 0.7 SSW,LARIMER,Colorado,5022,40.55,-105.07,M,M,M,M,M,M,M,M,M,M,M,0.1,M,M,M,M,M,M,M,M,M,M,M,M,M,M,M,M
US1COPU0132,PUEBLO WEST 3.2 SW,PUEBLO,Colorado,5020,38.32,-104.76,M,M,M,M,M,M,M,M,M,M,M,1.5,M,2,M,M,M,1.5,M,M,M,M,M,M,3.3,M,M,M
US1COLR0112,FORT COLLINS 3.9 NNE,LARIMER,Colorado,5019,40.61,-105.04,T,T,M,T,T,T,T,T,T,T,T,T,0.5,M,2.5,2.5,2.5,4.5,4,M,1,T,T,T,M,1,M,T
USC00050950,BRIGHTON 3 SE,ADAMS,Colorado,5015,39.94,-104.84,0,0,0,0,0,0,0,0,0,T,T,T,T,2,1,1,T,1,T,0,0,0,0,0,8,3,1,T
US1COBO0361,LONGMONT 1.8 E,BOULDER,Colorado,5013,40.17,-105.08,M,M,M,M,M,M,M,M,M,M,M,0.4,0.2,1.6,1.5,1,M,3.7,2.1,M,M,M,M,M,M,3.8,1,M
US1COLR0255,FCL,LARIMER,Colorado,5009,40.58,-105.09,T,T,T,0,0,0,0,0,T,T,T,0.3,0.5,2,2,1.5,1.7,5,3,2,0.5,T,T,T,3,2,0.5,T
USC00053005,FORT COLLINS,LARIMER,Colorado,5003,40.58,-105.09,0,0,0,0,0,0,0,0,0,0,0,0,1,2,2,1,3,3,1,1,0,0,0,1,2,0,0,0
US1COLR1049,FORT COLLINS 0.3 SSE,LARIMER,Colorado,5001,40.55,-105.07,M,M,M,M,M,M,0,M,0,0,0,M,M,M,M,M,M,M,M,M,M,M,M,M,M,M,M,M
US1COPU0070,PUEBLO WEST 2.1 SE,PUEBLO,Colorado,4998,38.33,-104.7,M,M,M,M,M,M,M,M,M,M,M,1.5,M,M,M,M,M,M,M,M,M,M,M,M,3.5,M,M,M
US1COLR0270,FCL 1.7 SE,LARIMER,Colorado,4996,40.56,-105.06,M,M,M,M,M,M,M,M,M,M,0,M,1.1,M,2.5,M,2.5,6,M,M,M,M,M,M,M,M,M,M
US1COLR0863,FORT COLLINS 1.1 WNW,LARIMER,Colorado,4995,40.56,-105.09,M,M,M,M,M,M,M,T,T,T,T,0.3,0.4,2.5,M,2,1,4.5,M,1.5,1,M,T,T,3,2,1,M
US1COLR0849,FORT COLLINS 0.9 N,LARIMER,Colorado,4988,40.57,-105.07,T,T,0,0,0,0,0,T,0,0,T,T,1,2.5,2.5,2,2,5,3.5,2.5,1.5,0.5,T,T,2.5,2,0.5,T
US1COLR1056,FORT COLLINS 1.0 SE,LARIMER,Colorado,4988,40.54,-105.06,M,M,M,M,M,M,M,M,M,M,M,M,M,2.4,M,M,M,3.2,M,M,M,M,M,M,2.6,M,M,M
US1COLR1222,BERTHOUD 2.0 SSW,LARIMER,Colorado,4986,40.28,-105.09,M,M,M,M,M,M,M,M,M,M,M,M,M,1,M,M,M,4.5,M,M,M,M,M,M,M,M,M,M
US1COLR0687,LOVELAND 2.7 E,LARIMER,Colorado,4986,40.43,-105.02,T,T,T,T,T,T,T,M,M,0,T,0.3,T,1.8,1.8,1.5,1,3,1.8,1,T,T,T,T,3.2,2.2,1,1
US1COLR0104,LOVELAND 3.0 NNE,LARIMER,Colorado,4983,40.44,-105.06,0,0,0,0,0,0,0,0,T,T,0.1,0.2,M,0.5,0.5,0.5,0.5,3.6,2.5,1.5,T,T,T,0,3,2,1,0.5
US1COLR1234,FORT COLLINS 1.2 SE,LARIMER,Colorado,4977,40.54,-105.05,T,T,T,T,T,T,T,T,T,T,T,0.5,1,2.5,2,2,1.5,5,3,2,1,T,T,T,2.5,0.5,T,T
US1COLR0340,FCL 2.55 NE,LARIMER,Colorado,4976,40.61,-105.06,M,M,M,M,M,M,M,M,M,M,M,0.2,0.5,2.5,2,2,1.5,4,3,2.5,1.5,1,M,M,3,2.5,1.5,1
US1COPU0080,PUEBLO WEST 4.9 SW,PUEBLO,Colorado,4975,38.3,-104.79,0,0,0,0,0,0,0,0,0,0,0,1,1,2,2,1.5,0,1.5,1,0,0,0,0,0,2.5,0,0,0
US1COLR0653,FORT COLLINS 3.4 N,LARIMER,Colorado,4973,40.61,-105.06,0,0,M,0,0,0,0,0,0,0,0,0,0,2,2,2,2.2,4,3,M,1,T,0,0,2,1.5,0.5,0
US1COLR1137,FORT COLLINS 1.2 NNE,LARIMER,Colorado,4972,40.57,-105.06,M,M,M,M,M,M,M,M,0,M,M,0.5,1,3,3,2,2,4,3,2,1,0.5,0.5,0,2.5,2,0.5,0
US1COLR0341,FCL 5.5 S,LARIMER,Colorado,4963,40.5,-105.07,M,M,M,M,M,M,M,M,M,M,M,M,M,M,1.7,M,M,M,M,M,M,M,M,M,M,M,M,M
US1COWE0203,LONGMONT 8.2 ESE,WELD,Colorado,4963,40.12,-104.96,M,M,M,M,M,M,M,M,M,T,T,0.2,T,1.5,1.5,1,T,1.8,M,M,T,M,M,M,7.2,4,2,1
US1COLR0662,LOVELAND 2.0 SSE,LARIMER,Colorado,4963,40.39,-105.05,M,M,M,M,M,M,M,T,T,T,T,0.3,0.2,1.5,T,M,T,2.5,T,M,T,M,M,M,2.5,T,M,T
US1COLR1059,WINDSOR 2.6 SW,LARIMER,Colorado,4963,40.46,-104.95,M,M,M,M,M,M,M,M,M,M,M,M,M,2,2,2,1,3,2,0,M,M,M,M,M,0,M,M
US1COLR1125,LOVELAND 3.2 E,LARIMER,Colorado,4958,40.41,-105.01,M,M,M,M,M,M,M,M,M,M,M,0.2,M,1.5,M,M,M,3,M,M,M,M,M,M,2.5,M,M,M
US1COLR0885,FORT COLLINS 3.7 S,LARIMER,Colorado,4951,40.5,-105.07,T,T,0,0,0,M,M,0,0,0,T,0.5,0.5,2,2,1.5,1.5,5.5,3,1.5,0.5,0.5,T,T,3,0.5,T,T
USC00055116,LONGMONT 2 ESE,BOULDER,Colorado,4949,40.17,-105.08,0,0,0,0,0,0,0,0,0,0,0,0,0,2,2,1,0,4,2,M,0,0,0,0,6,4,1,0
US1COLR1110,WINDSOR 2.9 SW,LARIMER,Colorado,4949,40.45,-104.95,M,M,M,M,M,M,M,M,M,M,M,M,M,M,M,M,M,3,M,M,M,M,M,M,M,M,M,M
US1COLR0845,WINDSOR 3.8 WSW,LARIMER,Colorado,4948,40.47,-104.98,M,M,M,M,M,M,M,M,0,M,T,T,T,2,2,2,1,3.5,0.5,T,T,T,T,T,2,0.5,T,T
US1COLR0632,FORT COLLINS 4.8 SE,LARIMER,Colorado,4940,40.53,-105.03,M,M,M,M,M,M,M,M,M,M,M,0.3,0.5,2.4,M,2.3,2.1,5,M,3.5,M,T,T,M,2,1.5,M,T
US1COLR0925,FORT COLLINS 1.9 E,LARIMER,Colorado,4937,40.55,-105.03,M,M,M,M,M,M,M,T,M,M,M,M,M,M,M,2,M,M,M,M,M,T,M,M,M,M,M,M
US1COAD0120,BRIGHTON 2.1 NNW,ADAMS,Colorado,4931,39.98,-104.81,M,M,M,M,M,M,M,M,M,M,M,M,M,M,M,M,M,1,M,M,M,M,M,M,M,M,M,M
US1COWE0394,NEW RAYMER 9.4 W,WELD,Colorado,4921,40.61,-103.96,M,M,M,M,M,M,M,M,T,M,M,M,M,M,M,M,M,M,M,M,M,M,M,M,M,M,M,M
US1COLN0018,KARVAL 9.8 WSW,LINCOLN,Colorado,4920,38.68,-103.7,M,M,M,M,M,M,M,M,M,M,M,0,M,2,2,2,1.5,1.5,1.5,1,0.5,0,M,M,1,M,M,M
US1COLR0393,FCL 5.6 E,LARIMER,Colorado,4917,40.57,-104.98,0,0,0,0,0,0,0,0,0,0,0,0,0.5,1.5,1.5,1.5,2,4,3.5,2,1,0,0,0,1.5,0,0,0
US1COWE0302,LONGMONT 5.1 E,WELD,Colorado,4917,40.17,-105.02,M,M,M,M,M,M,M,M,T,T,M,0.2,T,1.5,1.4,1,1,2.5,1,0.5,0.5,T,M,M,6,2.5,1,0.5
US1COWE0444,FORT LUPTON 0.1 SW,WELD,Colorado,4916,40.08,-104.81,M,M,M,M,M,M,M,T,M,M,M,0.3,M,M,M,M,M,M,M,M,M,M,M,M,M,M,M,M
US1COWE0326,FORT LUPTON 7.4 NW,WELD,Colorado,4913,40.17,-104.89,M,M,M,M,M,M,M,M,M,M,M,M,M,1,M,M,M,1.2,M,M,M,M,M,M,5.2,M,M,M
US1COWE0530,FIRESTONE 2.1 NNW,WELD,Colorado,4903,40.15,-104.94,M,M,M,M,M,M,M,M,0,0,0,0.2,0.1,1.2,1,0.8,0.5,2.8,2,M,M,M,M,M,6.5,M,M,M
US1COLR0758,FORT COLLINS 4.2 S,LARIMER,Colorado,4901,40.5,-105.06,T,T,M,M,M,M,M,M,M,M,T,0.5,0.5,2.5,2,1.5,1,4.5,2.5,1.5,T,T,T,T,3.5,1,0.5,T
US1COPU0028,PUEBLO 3.1 WSW,PUEBLO,Colorado,4881,38.24,-104.66,M,M,M,M,M,M,M,M,M,M,M,M,M,4,M,M,M,M,M,M,M,M,M,M,M,M,M,M
USC00058157,TACONY 13 SE,PUEBLO,Colorado,4881,38.34,-104.06,0,0,0,0,0,0,0,0,0,0,0,T,T,2,2,2,2,2,2,0,0,0,0,0,0,0,0,0
US1COWE0428,GREELEY 2.4 WSW,WELD,Colorado,4877,40.4,-104.78,M,M,M,M,M,M,M,M,M,M,M,M,M,M,2,M,1.5,2,1,M,M,M,M,M,M,M,M,M
US1COWE0397,EATON 4.3 ENE,WELD,Colorado,4864,40.54,-104.63,M,M,M,M,M,M,M,M,M,M,M,0.5,1,3,3,3,3,M,2,1,1,M,M,M,M,M,M,M
USC00050945,BRIGGSDALE,WELD,Colorado,4861,40.63,-104.33,0,0,0,0,0,0,0,0,T,T,T,T,1,3,2,2,5,5,4,2,T,0,0,0,0,0,0,0
USC00056765,PUEBLO RESERVOIR,PUEBLO,Colorado,4860,38.26,-104.72,0,0,0,0,0,0,0,0,0,0,T,2,T,T,3,2,1,3,1,1,T,T,0,0,2,T,0,0
US1COWE0558,LA SALLE 9.5 SSE,WELD,Colorado,4859,40.23,-104.61,M,M,M,M,M,M,M,M,M,M,M,M,M,2,M,M,M,M,M,M,M,M,M,M,2,M,M,M
USW00023066,GRAND JUNCTION WALKER FIELD,MESA,Colorado,4857,39.13,-108.54,0,0,0,0,0,0,0,0,0,0,0,0,0,0,0,1,T,T,0,0,0,0,0,0,0,0,T,0
USC00055025,LINDON 5 WNW,WASHINGTON,Colorado,4850,39.76,-103.5,M,M,M,T,M,M,M,T,M,T,M,T,T,T,1,1,1,1,1,M,2,T,M,M,1,T,M,M
US1COWE0171,GREELEY 2.6 W,WELD,Colorado,4845,40.4,-104.75,0,0,M,M,M,0,0,T,T,T,T,0.5,0.5,2.5,2.5,2,2,2.5,1.5,1,0.5,T,0,0,1,T,0,0
US1COBA0019,DEORA 10.7 SW,BACA,Colorado,4841,37.48,-103.07,M,M,M,0.5,T,T,M,M,M,M,M,0.3,0.3,3,3,2.7,2.3,3,0.4,M,T,M,M,M,M,M,M,M
US1COLR1213,TIMNATH 1.8 SSE,LARIMER,Colorado,4841,40.51,-104.97,M,M,M,M,M,M,M,M,M,M,M,M,M,M,M,M,M,M,M,M,M,M,M,M,1.5,M,M,M
US1COLR1016,TIMNATH 2.1 SE,LARIMER,Colorado,4839,40.51,-104.96,0,0,0,0,0,0,0,0,0,0,T,T,0.5,2.5,2,2,1.5,4,1.5,0.5,0.5,T,0,0,1.5,T,0,0
USC00053486,GRAND JUNCTION WFO,MESA,Colorado,4825,39.12,-108.52,0,0,0,0,0,0,0,0,0,0,0,0,0,0,T,0,T,0,0,0,0,0,0,0,0,0,0,0
US1COPU0118,PUEBLO 5.0 S,PUEBLO,Colorado,4812,38.23,-104.62,M,M,M,M,M,M,M,T,T,M,M,M,M,M,M,M,M,M,M,M,M,M,M,M,M,M,M,M
US1COWE0161,GREELEY 1 SW,WELD,Colorado,4809,40.39,-104.72,M,M,M,M,M,M,M,M,M,M,M,M,1,M,M,M,M,M,M,M,M,M,M,M,M,M,M,M
US1COWA0067,ANTON 5.8 SE,WASHINGTON,Colorado,4805,39.69,-103.15,0,0,0,T,0,0,0,0.5,T,T,T,T,T,3,3,3,M,3,2.5,2,1,1,0,0,M,0,0,0
US1COWE0025,GREELEY 4.4 W,WELD,Colorado,4799,40.41,-104.79,M,M,M,M,M,M,M,M,M,M,M,0.5,M,2,M,M,0.5,0.5,M,M,M,M,M,M,0.1,M,M,M
US1COWE0441,EATON 1.8 SE,WELD,Colorado,4789,40.51,-104.68,M,M,M,M,M,M,M,M,M,M,0,M,M,M,M,M,M,M,M,M,M,M,M,M,M,M,M,M
US1COME0118,GRAND JUNCTION 4.1 ENE,MESA,Colorado,4768,39.1,-108.48,M,M,M,M,M,M,M,M,M,M,M,M,M,M,0,0.4,0.4,0,M,M,M,M,M,M,M,M,M,M
US1COME0143,GRAND JUNCTION 8.0 W,MESA,Colorado,4768,39.1,-108.7,M,M,M,0,M,M,M,M,M,M,M,M,M,0.5,T,T,0,0,M,M,M,M,M,M,T,M,0,M
USC00053489,GRAND JUNCTION 6ESE,MESA,Colorado,4759,39.04,-108.47,0,0,0,0,0,M,M,0,0,0,0,M,M,M,0,0,0,0,M,M,M,0,0,0,0,0,M,M
US1COWE0536,GREELEY 0.8 NW,WELD,Colorado,4759,40.43,-104.75,M,M,M,M,M,M,M,M,M,M,M,T,0.5,2,2,1.5,1.5,2,1.5,0.5,T,T,M,M,0.5,M,M,M
US1COWE0507,WINDSOR 3.0 SSE,WELD,Colorado,4758,40.44,-104.9,M,M,M,M,M,M,M,T,M,M,M,M,M,1.7,1.7,1.7,1.5,3,M,M,M,M,M,M,0.5,M,M,M
US1COPU0109,PUEBLO 2.5 SSW,PUEBLO,Colorado,4755,38.26,-104.63,M,M,M,M,M,M,M,M,M,M,M,M,M,M,M,3.5,M,4,3.5,2,T,T,M,M,M,M,M,M
US1COWE0163,GREELEY 5.2 SW,WELD,Colorado,4753,40.36,-104.78,M,M,M,M,M,M,M,M,M,M,M,M,M,1.6,M,M,M,M,M,M,M,M,M,M,M,M,M,M
US1COME0162,REDLANDS 1.4 SSE,MESA,Colorado,4753,39.07,-108.64,M,M,M,M,M,M,M,M,M,M,M,M,M,M,M,M,0.1,M,M,M,M,M,M,M,M,M,M,M
US1COME0067,GRAND JUNCTION 1.0 E,MESA,Colorado,4750,39.09,-108.54,M,0,0,M,M,M,M,M,M,0,M,M,0,0.3,0,0.3,0,M,M,M,M,M,M,M,M,M,0,M
US1COME0003,GRAND JUNCTION 8NNW,MESA,Colorado,4750,39.18,-108.62,M,M,M,M,T,M,M,M,M,M,0,0,0,T,M,0.1,0,0,0,0,0,0,0,0,0,0,0,0
US1COWE0318,GREELEY 4.6 WNW,WELD,Colorado,4750,40.44,-104.81,M,0,0,0,0,0,0,0,0,0,0,0,M,2,2,2,1.5,1,0.5,0.5,T,T,T,T,0.5,T,0,0
USC00056266,PALISADE,MESA,Colorado,4750,39.11,-108.35,0,0,0,0,0,0,0,0,0,0,0,0,0,T,0,1,1,T,0,0,0,0,0,0,T,0,T,0
US1COME0163,GRAND JUNCTION 4.4 E,MESA,Colorado,4732,39.09,-108.47,0,0,0,0,0,0,0,0,0,0,0,0,0,1,0.5,0.5,T,T,0,0,0,0,0,0,0,0,T,0
US1COME0170,PALISADE 0.2 ENE,MESA,Colorado,4731,39.11,-108.36,M,M,M,M,M,M,M,M,M,M,M,M,M,0.5,M,0.9,1,M,M,M,M,M,M,M,T,M,M,M
USW00093058,PUEBLO MEMORIAL AIRPORT,PUEBLO,Colorado,4728,38.29,-104.51,0,0,0,0,0,0,0,0,T,T,T,1,1,2,2,2,1,2,2,T,0,0,0,0,3,T,0,0
US1COME0155,PALISADE 0.5 WSW,MESA,Colorado,4716,39.1,-108.37,M,M,M,M,M,M,M,M,M,M,M,M,M,M,M,0.5,M,M,M,M,M,M,M,M,M,M,M,M
US1COWE0517,EVANS 0.6 W,WELD,Colorado,4715,40.38,-104.71,0,M,0,0,0,0,0,T,T,T,T,0.2,T,2.5,2.5,M,2.5,2.5,M,M,M,0,0,0,1.5,M,0,0
USC00053553,GREELEY UNC,WELD,Colorado,4714,40.4,-104.7,0,0,0,0,0,0,0,0,0,0,0,0,2,2,2,M,2,2,2,0,0,0,0,0,0,0,0,0
US1COWE0433,GREELEY 4.7 SSW,WELD,Colorado,4697,40.35,-104.76,M,M,M,M,M,M,M,M,M,M,M,M,M,M,M,2,1,1.5,0.5,M,M,M,M,M,1.5,M,M,M
US1COWE0430,GREELEY 2.0 E,WELD,Colorado,4682,40.42,-104.71,M,M,M,M,M,M,M,T,M,M,M,M,M,M,M,M,M,M,M,M,M,M,M,M,M,M,M,M
US1COME0125,GRAND JUNCTION 2.3 E,MESA,Colorado,4679,39.09,-108.51,0,0,0,M,M,0,0,0,0,0,0,0,M,T,T,T,0,0,0,0,0,0,0,0,0,0,T,0
US1COME0100,GRAND JUNCTION 3.7 SSE,MESA,Colorado,4676,39.04,-108.52,0,0,0,0,0,0,0,0,0,0,0,0,0,M,M,M,M,M,0,0,0,0,0,0,0,0,0,0
USC00053246,GATEWAY 1ENE,MESA,Colorado,4670,38.69,-108.96,0,0,0,T,0,0,0,0,0,0,0,0,0,0,T,T,0,0,0,0,0,0,0,0,0,0,0,0
US1COPU0060,PUEBLO 1.1 ENE,PUEBLO,Colorado,4664,38.27,-104.61,M,M,M,M,M,M,M,M,M,M,M,M,M,M,M,1.8,M,M,M,M,M,M,M,M,M,M,M,M
US1COPU0103,PUEBLO 4.7 SE,PUEBLO,Colorado,4655,38.26,-104.55,0,0,0,0,0,0,0,0,0,0,T,1,1,2.2,2,1.5,0.5,1.5,0.5,0,0,0,0,0,3.5,T,T,T
US1COME0137,GRAND JUNCTION 3.6 W,MESA,Colorado,4652,39.08,-108.62,0,0,0,0,0,0,0,0,0,0,0,0,0,T,0,T,0,0,0,0,0,0,0,0,0,0,0,0
USC00058992,WFO PUEBLO,PUEBLO,Colorado,4652,38.28,-104.52,0,0,0,0,0,0,0,0,T,T,T,1,2,2,2,2,1,0,0,0,0,0,0,T,T,0,0,0
US1COME0153,CLIFTON 1.2 E,MESA,Colorado,4651,39.08,-108.44,M,M,M,0,M,M,M,M,M,0,M,M,0,T,M,0.5,T,T,M,M,M,M,M,M,M,M,0,M
US1COWA0021,LAST CHANCE 6.1 N,WASHINGTON,Colorado,4641,39.83,-103.57,M,M,M,M,M,M,M,M,M,M,M,M,M,M,5.1,M,M,M,M,M,M,M,M,M,M,M,M,M
US1COME0069,GRAND JUNCTION 4.0 W,MESA,Colorado,4629,39.09,-108.63,0,0,0,0,0,0,0,0,M,0,0,0,0,T,T,T,0,0,0,0,0,0,0,0,0,0,M,0
US1COME0049,GRAND JUNCTION 1.0 ESE,MESA,Colorado,4628,39.07,-108.54,M,M,M,M,M,M,M,M,M,M,M,M,M,M,M,0.4,M,M,M,M,M,M,M,M,M,M,M,M
US1COME0148,GRAND JUNCTION 3.0 ESE,MESA,Colorado,4622,39.07,-108.5,M,M,M,M,M,M,M,M,M,M,M,M,M,0.4,M,0.2,M,M,M,M,M,M,M,M,M,M,M,M
US1COME0169,ORCHARD MESA 1.5 NW,MESA,Colorado,4605,39.05,-108.54,M,M,M,M,M,M,M,M,M,M,M,0,M,M,M,M,M,M,M,M,M,M,M,M,M,M,M,M
US1COME0154,GRAND JUNCTION 1.3 SSW,MESA,Colorado,4604,39.07,-108.56,M,M,M,M,M,M,M,M,M,M,M,M,M,0.5,M,0.5,M,M,M,M,M,M,M,M,M,M,M,M
US1COMR0111,WIGGINS 1.1 S,MORGAN,Colorado,4558,40.21,-104.08,M,M,M,M,M,M,M,T,T,T,T,T,M,2,2,2,M,M,M,M,M,M,M,M,M,M,M,M
US1COWE0340,KERSEY 4.5 E,WELD,Colorado,4557,40.39,-104.47,M,M,M,M,M,M,M,M,M,M,M,0.5,0.5,2.5,2.5,2.5,3,3,M,1.5,0,M,M,M,0.5,0,M,M
USC00050109,AKRON 4 E,WASHINGTON,Colorado,4541,40.16,-103.14,0,0,0,0,0,1,1,0,1,1,1,1,2,3,3,3,4,4,M,3,1,0,0,0,0,0,0,0
US1COME0175,FRUITA 0.7 NE,MESA,Colorado,4541,39.16,-108.72,0,0,0,0,0,0,0,0,0,0,0,0,0,T,0,T,0,0,0,0,0,0,0,0,0,0,0,0
USC00050424,AVONDALE 1 N,PUEBLO,Colorado,4501,38.26,-104.35,M,M,M,M,M,M,M,M,M,0,0,1,M,M,M,M,M,M,M,M,M,M,M,M,M,M,M,M
USC00053146,FRUITA,MESA,Colorado,4497,39.14,-108.73,0,0,0,0,0,0,0,0,0,0,0,0,0,0,0,0,0,0,0,0,0,0,0,0,0,0,0,0
USC00054945,LEROY 5 WSW,LOGAN,Colorado,4466,40.51,-102.99,0,0,0,0,0,0,0,0,0,M,0,1,3,4,3,3,3,3,3,1,0,0,0,0,0,0,0,0
US1COLG0040,STERLING 15 SE,LOGAN,Colorado,4451,40.51,-102.99,M,M,M,M,M,0.2,M,M,M,M,M,M,3,4,M,3,3,M,M,M,T,M,M,M,M,0,M,M
US1COWA0080,OTIS 5.7 W,WASHINGTON,Colorado,4437,40.16,-103.07,M,T,T,M,0,0.5,0.2,T,0.3,0.7,0.7,1,2,3,3,3,2.5,2.6,2.5,2,M,M,T,T,T,T,T,T
US1COKC0084,STRATTON .25 WNW,KIT CARSON,Colorado,4425,39.3,-102.61,M,M,M,M,M,M,M,M,M,M,M,M,M,3,M,M,M,M,M,M,M,M,M,M,M,M,M,M
US1COKC0123,STRATTON 0.1 N,KIT CARSON,Colorado,4405,39.3,-102.6,0,0,0,T,0,0,0,1,T,T,T,T,1,3,3,3,3,3,3,1,T,T,0,0,T,0,0,0
USC00053038,FORT MORGAN,MORGAN,Colorado,4375,40.26,-103.87,M,M,M,M,M,M,M,M,M,M,M,M,M,M,M,3,6,5,M,M,M,M,M,M,M,M,M,M
USC00059213,WOODROW 6NNE,MORGAN,Colorado,4373,40.08,-103.57,0,0,0,0,0,0,0,0,0,0,0,0,0,1,1,1,2,2,1,0,1,0,0,0,0,0,0,0
US1COCR0008,CROWLEY 0.2 E,CROWLEY,Colorado,4351,38.19,-103.85,M,M,M,M,M,M,M,M,M,M,M,0.5,M,M,M,M,M,M,M,M,M,M,M,M,M,M,M,M
USC00056131,ORDWAY 4 W,CROWLEY,Colorado,4349,38.21,-103.82,T,0,0,0,0,0,0,0,0,T,0,T,T,1,2,2,2,3,2,2,T,T,T,0,T,0,0,0
US1COMR0043,BRUSH 4.9 SSE,MORGAN,Colorado,4320,40.19,-103.59,M,M,M,M,M,M,M,M,M,M,M,M,M,0.5,M,M,M,6,M,M,T,M,M,M,M,M,M,M
US1COMR0083,BRUSH 7.3 SSE,MORGAN,Colorado,4303,40.15,-103.6,M,M,M,M,M,M,M,M,M,M,T,M,0.5,3,3,3,5.5,5,4,M,0.5,M,M,M,M,M,M,M
USC00054603,KIT CARSON,CHEYENNE,Colorado,4301,38.76,-102.8,0,0,0,0,0,0,0,T,M,T,1,M,T,6,M,M,4,3,1,1,0,0,0,0,T,0,M,M
US1COLG0066,FLEMING 6.6 S,LOGAN,Colorado,4274,40.59,-102.84,M,M,M,0,M,M,M,M,M,M,M,M,M,M,M,M,M,M,M,M,M,M,M,M,M,M,M,0
USC00054380,JOES,YUMA,Colorado,4274,39.66,-102.68,0,M,0,T,M,T,M,T,M,0,0,T,T,3,3,3,1,1,1,T,T,M,M,0,0,0,0,0
USC00052947,FLEMING 3SW,LOGAN,Colorado,4255,40.65,-102.86,M,M,M,M,M,M,M,M,M,M,M,M,M,M,M,M,M,M,M,M,3,3,1,M,M,M,M,M
US1COMR0001,BRUSH 0.8 S,MORGAN,Colorado,4254,40.25,-103.62,M,M,M,M,M,M,M,M,M,M,M,M,M,3,M,M,4,M,M,M,M,M,M,M,M,M,M,M
US1COMR0002,BRUSH 1.3 W,MORGAN,Colorado,4254,40.26,-103.65,M,M,M,M,M,M,M,M,M,M,M,M,M,M,M,M,4,M,M,M,M,M,M,M,M,M,M,M
US1COMR0084,BRUSH 0.3 E,MORGAN,Colorado,4244,40.26,-103.63,M,M,M,M,M,M,M,M,M,M,M,M,0.9,2.7,M,M,4.1,M,M,M,M,M,M,M,M,M,M,M
US1COOT0042,LA JUNTA 17.5 S,OTERO,Colorado,4236,37.73,-103.5,M,M,M,M,M,M,M,M,M,M,M,M,T,3.8,3.8,M,M,3,M,M,M,M,M,M,M,M,M,M
US1COYU0024,LIBERTY 5.5 NW,YUMA,Colorado,4228,39.7,-102.71,M,M,M,T,M,T,T,T,T,T,T,T,T,1.5,1.5,1.5,1.5,1.5,1.5,0.5,0.5,M,M,M,T,M,M,M
US1COMR0081,HILLROSE 2.5 SSW,MORGAN,Colorado,4215,40.29,-103.55,M,M,M,M,M,0.5,M,M,M,M,M,M,M,2.5,M,M,4.5,M,M,M,M,M,M,M,M,M,M,M
USC00052446,EADS,KIOWA,Colorado,4211,38.48,-102.78,0,0,0,0,0,0,0,0,0,0,0,0,0,0,3,3,3,2,2,1,0,0,0,0,1,0,0,0
US1COKW0004,EADS .45 E,KIOWA,Colorado,4209,38.48,-102.77,M,M,M,M,M,M,M,M,M,M,M,M,M,M,3.5,M,M,M,M,M,M,M,M,M,M,M,M,M
USC00054726,LA JUNTA 20 S,OTERO,Colorado,4209,37.75,-103.48,0,0,0,4,1,0,0,0,0,0,0,0,0,4,4,4,3,4,3,2,1,0,0,0,0,0,0,0
USC00051121,BURLINGTON,KIT CARSON,Colorado,4161,39.31,-102.26,0,0,0,0,0,0,0,0,1,1,1,1,1,3.5,3,3,3,3,2,1,1,0,0,0,0,0,0,0
USC00051539,CHERAW 1 N,OTERO,Colorado,4146,38.12,-103.51,0,0,0,0,0,0,0,0,T,T,T,T,T,3,3,3,2,2,2,1,0,0,0,0,1,0,0,0
US1COOT0006,CHERAW .15 NNE,OTERO,Colorado,4143,38.11,-103.51,0,0,0,0,0,0,0,0,0,0,0,T,T,3,4,3,2.6,3.2,2.8,1.5,0,0,0,0,1,0,0,0
US1COYU0059,KIRK 6.2 E,YUMA,Colorado,4136,39.61,-102.48,M,M,M,0.3,M,0.1,0.1,T,0.2,T,T,M,T,3.5,M,M,M,M,T,M,M,M,M,M,M,M,M,M
USC00059295,YUMA,YUMA,Colorado,4133,40.12,-102.72,M,M,M,M,M,0,0,M,M,M,M,1,3,5,3,2,M,M,M,M,M,M,M,M,M,M,0,M
USC00059297,YUMA 10 NW,WASHINGTON,Colorado,4109,40.21,-102.81,M,M,M,M,M,0,0,M,0,M,0,0,1,3,3,3,3,3,2,1,0,0,M,M,M,M,M,M
US1COKW0038,EADS 6.1 ESE,KIOWA,Colorado,4108,38.45,-102.67,M,M,M,M,M,M,M,M,M,M,M,M,M,M,3.5,M,M,M,M,M,M,M,M,M,M,M,M,M
USC00051268,CAMPO 7 S,BACA,Colorado,4104,37.01,-102.55,0,0,0,0,0,0,0,0,0,0,0,0,0,3,3,3,3,3,2,T,0,0,0,0,0,0,0,0
USC00054724,LA JUNTA,OTERO,Colorado,4088,37.98,-103.54,0,0,0,0,0,0,0,0,0,0,0,T,T,3,3,3,2,3,3,2,T,0,0,0,0,0,0,0
USC00057582,SHERIDAN LAKE,KIOWA,Colorado,4069,38.47,-102.3,0,0,0,0,0,0,0,T,T,T,T,T,T,2,2,2,1,1,T,T,0,0,0,0,0,0,0,0
USC00050306,ARAPAHOE 12S,CHEYENNE,Colorado,4064,38.68,-102.16,0,0,0,0,0,0,0,0,0,0,0,0,0,3,3,3,3,3,3,1,1,0,0,0,0,0,0,0
US1COKC0080,BURLINGTON 8.4  NNE,KIT CARSON,Colorado,4041,39.42,-102.2,M,M,M,0.3,M,M,M,M,M,1,1,1,M,M,M,M,M,M,M,M,M,M,M,M,M,M,M,M
USC00057586,SHERIDAN LAKE 4E,KIOWA,Colorado,4038,38.47,-102.22,M,M,M,M,M,M,M,T,T,0.3,M,T,T,1,2,2,1,1,T,M,M,M,M,M,M,M,M,M
US1COPH0037,HAXTUN 0.2 N,PHILLIPS,Colorado,4034,40.65,-102.63,M,M,M,M,M,M,M,M,M,M,M,M,M,5.8,M,M,M,M,M,M,M,M,M,M,M,M,M,M
USC00057515,SEDGWICK 5 S,SEDGWICK,Colorado,3995,40.87,-102.52,0,0,0,0,0,1,1,1,1,1,1,2,3,5,5,5,5,4,4,3,2,2,0,0,0,0,0,0
US1COBN0008,LAS ANIMAS 8.1 NE,BENT,Colorado,3985,38.14,-103.11,M,M,M,M,M,M,M,M,M,M,M,M,M,M,2.5,M,M,M,M,M,M,M,M,M,M,M,M,M
USC00058793,WALSH 1 W,BACA,Colorado,3977,37.38,-102.3,0,0,0,T,0,0,0,T,T,1,2,2,2,4,4,4,3,2,2,1,0,0,0,0,0,0,0,0
USC00054242,IDALIA,YUMA,Colorado,3964,39.7,-102.29,0,0,0,T,0,T,T,T,T,T,T,T,1,6,6,5,5,4,3,1,0,0,0,0,0,0,0,0
US1COLG0035,STERLING 2.6 SSW,LOGAN,Colorado,3946,40.61,-103.23,M,M,M,M,M,M,M,M,T,T,0.3,M,3,5,M,M,M,M,M,M,M,M,M,M,M,M,M,M
US1COLG0067,ILIFF 8.9 NE,LOGAN,Colorado,3936,40.86,-102.96,0,0,0,0,0,T,1.5,1.5,1.5,1.5,1.5,1.5,4,4,4,4,4,3,3,3,1.5,0.5,0,0,0,0,0,0
USC00058345,TOWNER,KIOWA,Colorado,3927,38.47,-102.08,0,0,0,0,0,0,0,0,T,T,0,0,T,3,2,2,2,1,0,0,0,0,0,0,0,0,0,0
USC00054834,LAS ANIMAS,BENT,Colorado,3889,38.06,-103.22,0,0,0,0,0,0,0,0,0,0,0,0,0,2,3,2,2,T,T,0,0,0,0,0,T,0,0,0
US1COYU0048,VERNON 7.1 S,YUMA,Colorado,3861,39.84,-102.32,M,M,M,M,M,0.5,M,M,M,M,M,0.2,0.5,4,4,2.5,2.5,M,M,M,M,M,M,M,M,M,M,M
USC00058613,VERNON 4ENE,YUMA,Colorado,3820,39.98,-102.25,0,0,0,0,0,0,0,0,0,0,0,0,2,4,4,4,4,3,3,2,1,0,0,0,0,0,0,0
US1COYU0062,VERNON 3.6 NNE,YUMA,Colorado,3818,39.98,-102.25,M,M,M,M,M,M,M,M,M,M,M,M,2,4.5,4.5,4.5,4,M,3,M,0.5,M,M,M,M,M,M,M
USC00054388,JOHN MARTIN DAM,BENT,Colorado,3813,38.06,-102.93,0,0,0,0,0,0,0,0,0,0,0,0,M,M,M,1,1,1,0,0,0,0,0,0,0,0,0,0
USC00054082,HOLYOKE,PHILLIPS,Colorado,3779,40.55,-102.34,0,0,0,0,0,1,2,2,2,2,2,2,5,6,5,5,5,4,4,3,2,0,0,0,0,0,0,0
US1COPH0014,HOLYOKE .59 SW,PHILLIPS,Colorado,3746,40.58,-102.31,M,M,M,M,M,1.3,2.5,2.5,2.5,2.5,2.5,2.5,4.5,6.5,M,M,M,M,M,M,M,M,M,M,M,M,M,M
US1COPH0045,HOLYOKE 0.3 WSW,PHILLIPS,Colorado,3745,40.58,-102.31,M,M,M,0,M,1.5,3,M,M,M,M,M,4.5,6.5,M,M,M,M,M,M,M,M,M,M,M,M,M,M
US1COPW0034,LAMAR 2.9 S,PROWERS,Colorado,3742,38.04,-102.61,0,M,M,M,M,M,M,M,M,M,M,M,M,M,2.5,M,M,M,M,M,M,M,M,M,M,M,M,M
USC00051996,CROOK,LOGAN,Colorado,3708,40.86,-102.8,0,0,0,0,0,T,3,3,3,3,3,3,5,5,5,5,5,5,5,5,4,4,1,0,0,0,0,0
US1COYU0068,WRAY 4.2 NNE,YUMA,Colorado,3681,40.14,-102.2,M,M,M,T,M,M,M,M,M,T,T,M,1,4,4.5,3,M,2,1,1,T,M,M,M,M,M,M,M
US1COYU0052,WRAY 19 NNE,YUMA,Colorado,3628,40.35,-102.14,1.5,M,M,M,M,M,M,M,M,M,M,M,M,M,M,M,M,M,M,M,M,M,M,M,M,M,M,M
USC00054770,LAMAR,PROWERS,Colorado,3626,38.09,-102.63,0,0,0,T,0,0,0,T,T,0,T,T,1,3,3,3,0,0,0,0,0,0,0,0,0,0,0,0
USC00059243,WRAY,YUMA,Colorado,3552,40.08,-102.21,0,0,0,0,0,0,0,0,0,0,0,0,1,3,5,5,4,3,3,2,0,0,0,0,0,0,0,0
US1COSG0004,JULESBURG 0.1 WNW,SEDGWICK,Colorado,3483,40.99,-102.27,M,M,M,M,M,M,M,M,M,M,M,M,5,M,2,M,M,M,M,M,M,M,M,M,M,M,M,M
USC00054413,JULESBURG,SEDGWICK,Colorado,3476,40.99,-102.27,M,0,M,M,M,M,M,M,M,M,M,M,M,M,M,M,M,M,M,M,M,M,M,M,M,M,M,M
USC00054076,HOLLY,PROWERS,Colorado,3400,38.05,-102.13,0,0,0,0,0,0,0,0,0,T,T,T,T,2,2,2,1,1,T,0,0,0,0,0,0,0,0,0
US1COPU0134,PUEBLO WEST 3.7 NNE,PUEBLO,Colorado,3014,38.4,-104.7,M,M,M,M,M,M,M,M,M,M,M,M,M,1.7,M,M,M,M,M,M,M,0,M,M,0,M,M,M
US1COCF0065,BUENA VISTA 2.0 ESE,CHAFFEE,Colorado,8635,38.82,-106.11,M,M,M,M,M,M,M,M,M,M,M,M,M,1.6,M,M,M,5.8,M,M,M,M,M,M,M,M,M,M
